{"type":"FeatureCollection","name":"reseau_cables","crs":{"type":"name","properties":{"name":"urn:ogc:def:crs:OGC:1.3:CRS84"}},"features":[{"type":"Feature","properties":{"id":"CAB-001","secteur":"Nord","type_cable":"souterrain","longueur_m":1240,"tension_v":230,"annee_pose":2017},"geometry":{"type":"LineString","coordinates":[[55.438,-20.8744],[55.442,-20.878],[55.446,-20.882],[55.4504,-20.8823],[55.456,-20.885],[55.4612,-20.8901]]}},{"type":"Feature","properties":{"id":"CAB-002","secteur":"Nord","type_cable":"aérien","longueur_m":980,"tension_v":230,"annee_pose":2014},"geometry":{"type":"LineString","coordinates":[[55.4612,-20.8901],[55.471,-20.895],[55.482,-20.9],[55.5,-20.905],[55.5333,-20.8951]]}},{"type":"Feature","properties":{"id":"CAB-003","secteur":"Est","type_cable":"souterrain","longueur_m":1580,"tension_v":230,"annee_pose":2020},"geometry":{"type":"LineString","coordinates":[[55.6498,-20.9639],[55.67,-20.978],[55.69,-21],[55.7133,-21.0333],[55.728,-21.0512]]}},{"type":"Feature","properties":{"id":"CAB-004","secteur":"Est","type_cable":"aérien","longueur_m":870,"tension_v":230,"annee_pose":2015},"geometry":{"type":"LineString","coordinates":[[55.728,-21.0512],[55.738,-21.06],[55.7498,-21.0694],[55.76,-21.09],[55.7958,-21.1282]]}},{"type":"Feature","properties":{"id":"CAB-005","secteur":"Sud","type_cable":"souterrain","longueur_m":2100,"tension_v":230,"annee_pose":2021},"geometry":{"type":"LineString","coordinates":[[55.4458,-21.2731],[55.452,-21.29],[55.465,-21.31],[55.4784,-21.3393],[55.4902,-21.348]]}},{"type":"Feature","properties":{"id":"CAB-006","secteur":"Ouest","type_cable":"souterrain","longueur_m":1650,"tension_v":230,"annee_pose":2019},"geometry":{"type":"LineString","coordinates":[[55.2756,-21.0015],[55.2793,-21.058],[55.2836,-21.1544],[55.3104,-21.105]]}},{"type":"Feature","properties":{"id":"CAB-007","secteur":"Hauts","type_cable":"souterrain","longueur_m":3200,"tension_v":400,"annee_pose":2016},"geometry":{"type":"LineString","coordinates":[[55.5187,-21.2693],[55.527,-21.24],[55.5378,-21.207],[55.544,-21.228],[55.5272,-21.0333]]}},{"type":"Feature","properties":{"id":"CAB-008","secteur":"Hauts Ouest","type_cable":"aérien","longueur_m":4100,"tension_v":400,"annee_pose":2013},"geometry":{"type":"LineString","coordinates":[[55.417,-20.928],[55.428,-20.98],[55.435,-21.02],[55.45,-21.08],[55.4741,-21.1344],[55.462,-21.152]]}}]}