{"type":"FeatureCollection","name":"armoires","crs":{"type":"name","properties":{"name":"urn:ogc:def:crs:OGC:1.3:CRS84"}},"features":[{"type":"Feature","properties":{"id":"ARM-001","secteur":"Nord","commune":"Saint-Denis","altitude":15,"puissance_kw":12.5,"nb_points":85,"statut":"actif","annee_pose":2016},"geometry":{"type":"Point","coordinates":[55.456,-20.885]}},{"type":"Feature","properties":{"id":"ARM-002","secteur":"Nord","commune":"Sainte-Marie","altitude":30,"puissance_kw":8,"nb_points":52,"statut":"actif","annee_pose":2017},"geometry":{"type":"Point","coordinates":[55.539,-20.9]}},{"type":"Feature","properties":{"id":"ARM-003","secteur":"Est","commune":"Saint-André","altitude":25,"puissance_kw":10.5,"nb_points":68,"statut":"actif","annee_pose":2019},"geometry":{"type":"Point","coordinates":[55.658,-20.972]}},{"type":"Feature","properties":{"id":"ARM-004","secteur":"Est","commune":"Saint-Benoît","altitude":18,"puissance_kw":9,"nb_points":60,"statut":"actif","annee_pose":2018},"geometry":{"type":"Point","coordinates":[55.72,-21.04]}},{"type":"Feature","properties":{"id":"ARM-005","secteur":"Sud","commune":"Saint-Pierre","altitude":22,"puissance_kw":14,"nb_points":92,"statut":"actif","annee_pose":2020},"geometry":{"type":"Point","coordinates":[55.481,-21.345]}},{"type":"Feature","properties":{"id":"ARM-006","secteur":"Sud","commune":"Le Tampon","altitude":530,"puissance_kw":7.5,"nb_points":48,"statut":"défaillant","annee_pose":2015},"geometry":{"type":"Point","coordinates":[55.525,-21.275]}},{"type":"Feature","properties":{"id":"ARM-007","secteur":"Ouest","commune":"Saint-Paul","altitude":12,"puissance_kw":11,"nb_points":74,"statut":"actif","annee_pose":2021},"geometry":{"type":"Point","coordinates":[55.283,-21.008]}},{"type":"Feature","properties":{"id":"ARM-008","secteur":"Ouest","commune":"Saint-Leu","altitude":20,"puissance_kw":8.5,"nb_points":55,"statut":"actif","annee_pose":2019},"geometry":{"type":"Point","coordinates":[55.29,-21.16]}},{"type":"Feature","properties":{"id":"ARM-009","secteur":"Hauts Ouest","commune":"Cilaos","altitude":1240,"puissance_kw":4,"nb_points":28,"statut":"actif","annee_pose":2017},"geometry":{"type":"Point","coordinates":[55.478,-21.14]}},{"type":"Feature","properties":{"id":"ARM-010","secteur":"Hauts Sud","commune":"Le Tampon","altitude":1250,"puissance_kw":5,"nb_points":32,"statut":"actif","annee_pose":2018},"geometry":{"type":"Point","coordinates":[55.54,-21.215]}}]}