{"type":"FeatureCollection","name":"secteurs_eclairage","crs":{"type":"name","properties":{"name":"urn:ogc:def:crs:OGC:1.3:CRS84"}},"features":[{"type":"Feature","properties":{"id":"SEC-001","nom":"Secteur Nord","communes":"Saint-Denis, Sainte-Marie, Sainte-Suzanne","nb_candelabres":5842,"nb_armoires":48,"puissance_kw":584.2,"responsable":"Direction Nord"},"geometry":{"type":"Polygon","coordinates":[[[55.38,-20.82],[55.62,-20.82],[55.62,-20.96],[55.38,-20.96],[55.38,-20.82]]]}},{"type":"Feature","properties":{"id":"SEC-002","nom":"Secteur Est","communes":"Saint-André, Saint-Benoît, Sainte-Anne, Sainte-Rose","nb_candelabres":4210,"nb_armoires":36,"puissance_kw":421,"responsable":"Direction Est"},"geometry":{"type":"Polygon","coordinates":[[[55.62,-20.88],[55.83,-20.88],[55.83,-21.18],[55.62,-21.18],[55.62,-20.88]]]}},{"type":"Feature","properties":{"id":"SEC-003","nom":"Secteur Sud","communes":"Saint-Pierre, Saint-Louis, Saint-Joseph, Le Tampon","nb_candelabres":6380,"nb_armoires":55,"puissance_kw":638,"responsable":"Direction Sud"},"geometry":{"type":"Polygon","coordinates":[[[55.35,-21.18],[55.7,-21.18],[55.7,-21.45],[55.35,-21.45],[55.35,-21.18]]]}},{"type":"Feature","properties":{"id":"SEC-004","nom":"Secteur Ouest","communes":"Saint-Paul, Saint-Leu, Les Trois-Bassins","nb_candelabres":4950,"nb_armoires":42,"puissance_kw":495,"responsable":"Direction Ouest"},"geometry":{"type":"Polygon","coordinates":[[[55.2,-20.9],[55.38,-20.9],[55.38,-21.2],[55.2,-21.2],[55.2,-20.9]]]}},{"type":"Feature","properties":{"id":"SEC-005","nom":"Secteur Hauts","communes":"Cilaos, Salazie, La Montagne, Les Makes","nb_candelabres":1240,"nb_armoires":18,"puissance_kw":124,"responsable":"Direction Hauts"},"geometry":{"type":"Polygon","coordinates":[[[55.38,-20.96],[55.62,-20.96],[55.62,-21.18],[55.38,-21.18],[55.38,-20.96]]]}}]}