{"type":"FeatureCollection","name":"sites_de_conservation_wdpa","crs":{"type":"name","properties":{"name":"urn:ogc:def:crs:OGC:1.3:CRS84"}},"features":[{"type":"Feature","properties":{"fid":1,"SITE_ID":14,"SITE_PID":"14","SITE_TYPE":"PA","NAME_ENG":"Tierra del Fuego","NAME":"Tierra del Fuego","DESIG":"Parque Nacional","DESIG_ENG":"National Park","DESIG_TYPE":"National","IUCN_CAT":"II","INT_CRIT":"Not Applicable","REALM":"Terrestrial","REP_M_AREA":8.71,"REP_AREA":689.099975586,"NO_TAKE":"Not Applicable","NO_TK_AREA":0,"STATUS":"Designated","STATUS_YR":1960,"GOV_TYPE":"Federal or national ministry or agency","GOVSUBTYPE":"Not Applicable","OWN_TYPE":"Not Reported","OWNSUBTYPE":"Not Applicable","MANG_AUTH":"Administración de Parques Nacionales","MANG_PLAN":"Not Reported","VERIF":"State Verified","METADATAID":1935,"PRNT_ISO3":"ARG","ISO3":"ARG","SUPP_INFO":"Not Applicable","CONS_OBJ":"Not Applicable","INLND_WTRS":"Not Reported","OECM_ASMT":"Not Applicable","layer":"WDPA_W~2"},"geometry":{"type":"MultiPoint","coordinates":[[-68.48597,-54.64226]]}},{"type":"Feature","properties":{"fid":2,"SITE_ID":61853,"SITE_PID":"61853","SITE_TYPE":"PA","NAME_ENG":"La Noria","NAME":"La Noria","DESIG":"Reserva de Uso Múltiple","DESIG_ENG":"Multiple Use Reserve","DESIG_TYPE":"National","IUCN_CAT":"VI","INT_CRIT":"Not Applicable","REALM":"Terrestrial","REP_M_AREA":0,"REP_AREA":0.85,"NO_TAKE":"Not Applicable","NO_TK_AREA":0,"STATUS":"Designated","STATUS_YR":1999,"GOV_TYPE":"Not Reported","GOVSUBTYPE":"Not Applicable","OWN_TYPE":"Not Reported","OWNSUBTYPE":"Not Applicable","MANG_AUTH":"Not Reported","MANG_PLAN":"Not Reported","VERIF":"State Verified","METADATAID":1852,"PRNT_ISO3":"ARG","ISO3":"ARG","SUPP_INFO":"Not Applicable","CONS_OBJ":"Not Applicable","INLND_WTRS":"Not Reported","OECM_ASMT":"Not Applicable","layer":"WDPA_W~2"},"geometry":{"type":"MultiPoint","coordinates":[[-60.95951,-32.1562]]}},{"type":"Feature","properties":{"fid":3,"SITE_ID":300020,"SITE_PID":"300020","SITE_TYPE":"PA","NAME_ENG":"Campo General Belgrano","NAME":"Campo General Belgrano","DESIG":"Area de Conservación","DESIG_ENG":"Conservation Area","DESIG_TYPE":"National","IUCN_CAT":"VI","INT_CRIT":"Not Applicable","REALM":"Terrestrial","REP_M_AREA":0,"REP_AREA":32.98,"NO_TAKE":"Not Applicable","NO_TK_AREA":0,"STATUS":"Designated","STATUS_YR":1996,"GOV_TYPE":"Sub-national ministry or agency","GOVSUBTYPE":"Not Applicable","OWN_TYPE":"Not Reported","OWNSUBTYPE":"Not Applicable","MANG_AUTH":"Not Reported","MANG_PLAN":"Not Reported","VERIF":"State Verified","METADATAID":1852,"PRNT_ISO3":"ARG","ISO3":"ARG","SUPP_INFO":"Not Applicable","CONS_OBJ":"Not Applicable","INLND_WTRS":"Not Reported","OECM_ASMT":"Not Applicable","layer":"WDPA_W~2"},"geometry":{"type":"MultiPoint","coordinates":[[-65.33417,-24.78235]]}},{"type":"Feature","properties":{"fid":4,"SITE_ID":300043,"SITE_PID":"300043","SITE_TYPE":"PA","NAME_ENG":"Isla Botija","NAME":"Isla Botija","DESIG":"Reserva Natural de Uso Múltiple","DESIG_ENG":"Multiple Use Nature Reserve","DESIG_TYPE":"National","IUCN_CAT":"VI","INT_CRIT":"Not Applicable","REALM":"Terrestrial","REP_M_AREA":0,"REP_AREA":7.59,"NO_TAKE":"Not Applicable","NO_TK_AREA":0,"STATUS":"Designated","STATUS_YR":1958,"GOV_TYPE":"Sub-national ministry or agency","GOVSUBTYPE":"Not Applicable","OWN_TYPE":"Not Reported","OWNSUBTYPE":"Not Applicable","MANG_AUTH":"Not Reported","MANG_PLAN":"Not Reported","VERIF":"State Verified","METADATAID":1852,"PRNT_ISO3":"ARG","ISO3":"ARG","SUPP_INFO":"Not Applicable","CONS_OBJ":"Not Applicable","INLND_WTRS":"Not Reported","OECM_ASMT":"Not Applicable","layer":"WDPA_W~2"},"geometry":{"type":"MultiPoint","coordinates":[[-58.7681,-33.96258]]}},{"type":"Feature","properties":{"fid":5,"SITE_ID":300047,"SITE_PID":"300047","SITE_TYPE":"PA","NAME_ENG":"Isla Deseada","NAME":"Isla Deseada","DESIG":"Area de Uso Científico Bajo Protección Especial","DESIG_ENG":"Scientific Use Area Under Special Protection","DESIG_TYPE":"National","IUCN_CAT":"VI","INT_CRIT":"Not Applicable","REALM":"Terrestrial","REP_M_AREA":0,"REP_AREA":4.9,"NO_TAKE":"Not Applicable","NO_TK_AREA":0,"STATUS":"Designated","STATUS_YR":1990,"GOV_TYPE":"Sub-national ministry or agency","GOVSUBTYPE":"Not Applicable","OWN_TYPE":"Not Reported","OWNSUBTYPE":"Not Applicable","MANG_AUTH":"Not Reported","MANG_PLAN":"Not Reported","VERIF":"State Verified","METADATAID":1852,"PRNT_ISO3":"ARG","ISO3":"ARG","SUPP_INFO":"Not Applicable","CONS_OBJ":"Not Applicable","INLND_WTRS":"Not Reported","OECM_ASMT":"Not Applicable","layer":"WDPA_W~2"},"geometry":{"type":"MultiPoint","coordinates":[[-68.97185,-51.54684]]}},{"type":"Feature","properties":{"fid":6,"SITE_ID":300055,"SITE_PID":"300055","SITE_TYPE":"PA","NAME_ENG":"Delta en Formación","NAME":"Delta en Formación","DESIG":"Reserva Natural Integral","DESIG_ENG":"Integral Nature Reserve","DESIG_TYPE":"National","IUCN_CAT":"Not Reported","INT_CRIT":"Not Applicable","REALM":"Terrestrial","REP_M_AREA":0,"REP_AREA":15,"NO_TAKE":"Not Applicable","NO_TK_AREA":0,"STATUS":"Designated","STATUS_YR":1999,"GOV_TYPE":"Sub-national ministry or agency","GOVSUBTYPE":"Not Applicable","OWN_TYPE":"Not Reported","OWNSUBTYPE":"Not Applicable","MANG_AUTH":"Not Reported","MANG_PLAN":"Not Reported","VERIF":"State Verified","METADATAID":1852,"PRNT_ISO3":"ARG","ISO3":"ARG","SUPP_INFO":"Not Applicable","CONS_OBJ":"Not Applicable","INLND_WTRS":"Not Reported","OECM_ASMT":"Not Applicable","layer":"WDPA_W~2"},"geometry":{"type":"MultiPoint","coordinates":[[-58.44942,-34.33394]]}},{"type":"Feature","properties":{"fid":7,"SITE_ID":555587089,"SITE_PID":"555587089","SITE_TYPE":"PA","NAME_ENG":"Islote Coria","NAME":"Islote Coria","DESIG":"Reserva de Uso Múltiple","DESIG_ENG":"Multiple Use Reserve","DESIG_TYPE":"National","IUCN_CAT":"VI","INT_CRIT":"Not Applicable","REALM":"Terrestrial","REP_M_AREA":0,"REP_AREA":0.2,"NO_TAKE":"Not Applicable","NO_TK_AREA":0,"STATUS":"Designated","STATUS_YR":2005,"GOV_TYPE":"Not Reported","GOVSUBTYPE":"Not Applicable","OWN_TYPE":"Not Reported","OWNSUBTYPE":"Not Applicable","MANG_AUTH":"Not Reported","MANG_PLAN":"Not Reported","VERIF":"State Verified","METADATAID":1852,"PRNT_ISO3":"ARG","ISO3":"ARG","SUPP_INFO":"Not Applicable","CONS_OBJ":"Not Applicable","INLND_WTRS":"Not Reported","OECM_ASMT":"Not Applicable","layer":"WDPA_W~2"},"geometry":{"type":"MultiPoint","coordinates":[[-60.65984,-32.03768]]}},{"type":"Feature","properties":{"fid":8,"SITE_ID":555587090,"SITE_PID":"555587090","SITE_TYPE":"PA","NAME_ENG":"Montecito de Lovera","NAME":"Montecito de Lovera","DESIG":"Reserva de Uso Múltiple","DESIG_ENG":"Multiple Use Reserve","DESIG_TYPE":"National","IUCN_CAT":"VI","INT_CRIT":"Not Applicable","REALM":"Terrestrial","REP_M_AREA":0,"REP_AREA":0.06,"NO_TAKE":"Not Applicable","NO_TK_AREA":0,"STATUS":"Designated","STATUS_YR":2001,"GOV_TYPE":"Not Reported","GOVSUBTYPE":"Not Applicable","OWN_TYPE":"Not Reported","OWNSUBTYPE":"Not Applicable","MANG_AUTH":"Not Reported","MANG_PLAN":"Not Reported","VERIF":"State Verified","METADATAID":1852,"PRNT_ISO3":"ARG","ISO3":"ARG","SUPP_INFO":"Not Applicable","CONS_OBJ":"Not Applicable","INLND_WTRS":"Not Reported","OECM_ASMT":"Not Applicable","layer":"WDPA_W~2"},"geometry":{"type":"MultiPoint","coordinates":[[-60.06674,-31.57238]]}},{"type":"Feature","properties":{"fid":9,"SITE_ID":555587092,"SITE_PID":"555587092","SITE_TYPE":"PA","NAME_ENG":"Parana Guazu","NAME":"Paraná Guazú","DESIG":"Reserva Natural Objetivo Definido Educativo","DESIG_ENG":"Nature Reserve","DESIG_TYPE":"National","IUCN_CAT":"IV","INT_CRIT":"Not Applicable","REALM":"Terrestrial","REP_M_AREA":0,"REP_AREA":7.47,"NO_TAKE":"Not Applicable","NO_TK_AREA":0,"STATUS":"Designated","STATUS_YR":2011,"GOV_TYPE":"Not Reported","GOVSUBTYPE":"Not Applicable","OWN_TYPE":"Not Reported","OWNSUBTYPE":"Not Applicable","MANG_AUTH":"Not Reported","MANG_PLAN":"Not Reported","VERIF":"State Verified","METADATAID":1852,"PRNT_ISO3":"ARG","ISO3":"ARG","SUPP_INFO":"Not Applicable","CONS_OBJ":"Not Applicable","INLND_WTRS":"Not Reported","OECM_ASMT":"Not Applicable","layer":"WDPA_W~2"},"geometry":{"type":"MultiPoint","coordinates":[[-59.09295,-33.86334]]}},{"type":"Feature","properties":{"fid":10,"SITE_ID":555587094,"SITE_PID":"555587094","SITE_TYPE":"PA","NAME_ENG":"De los Ombúes","NAME":"De los Ombúes","DESIG":"Reserva Natural Municipal","DESIG_ENG":"Municipal Nature Reserve","DESIG_TYPE":"National","IUCN_CAT":"VI","INT_CRIT":"Not Applicable","REALM":"Terrestrial","REP_M_AREA":0,"REP_AREA":0.03,"NO_TAKE":"Not Applicable","NO_TK_AREA":0,"STATUS":"Designated","STATUS_YR":2002,"GOV_TYPE":"Not Reported","GOVSUBTYPE":"Not Applicable","OWN_TYPE":"Not Reported","OWNSUBTYPE":"Not Applicable","MANG_AUTH":"Not Reported","MANG_PLAN":"Not Reported","VERIF":"State Verified","METADATAID":1852,"PRNT_ISO3":"ARG","ISO3":"ARG","SUPP_INFO":"Not Applicable","CONS_OBJ":"Not Applicable","INLND_WTRS":"Not Reported","OECM_ASMT":"Not Applicable","layer":"WDPA_W~2"},"geometry":{"type":"MultiPoint","coordinates":[[-60.13852,-32.63881]]}},{"type":"Feature","properties":{"fid":11,"SITE_ID":555587095,"SITE_PID":"555587095","SITE_TYPE":"PA","NAME_ENG":"El Alisal (Isla El Espinillo)","NAME":"El Alisal (Isla El Espinillo)","DESIG":"Paisaje Protegido","DESIG_ENG":"Protected Landscape","DESIG_TYPE":"National","IUCN_CAT":"V","INT_CRIT":"Not Applicable","REALM":"Terrestrial","REP_M_AREA":0,"REP_AREA":2.46,"NO_TAKE":"Not Applicable","NO_TK_AREA":0,"STATUS":"Designated","STATUS_YR":2000,"GOV_TYPE":"Not Reported","GOVSUBTYPE":"Not Applicable","OWN_TYPE":"Not Reported","OWNSUBTYPE":"Not Applicable","MANG_AUTH":"Not Reported","MANG_PLAN":"Not Reported","VERIF":"State Verified","METADATAID":1852,"PRNT_ISO3":"ARG","ISO3":"ARG","SUPP_INFO":"Not Applicable","CONS_OBJ":"Not Applicable","INLND_WTRS":"Not Reported","OECM_ASMT":"Not Applicable","layer":"WDPA_W~2"},"geometry":{"type":"MultiPoint","coordinates":[[-60.16731,-32.56616]]}},{"type":"Feature","properties":{"fid":12,"SITE_ID":555587098,"SITE_PID":"555587098","SITE_TYPE":"PA","NAME_ENG":"El Chañar","NAME":"El Chañar","DESIG":"Reserva Natural de Uso Múltiple","DESIG_ENG":"Multiple Use Nature Reserve","DESIG_TYPE":"National","IUCN_CAT":"VI","INT_CRIT":"Not Applicable","REALM":"Terrestrial","REP_M_AREA":0,"REP_AREA":7.5,"NO_TAKE":"Not Applicable","NO_TK_AREA":0,"STATUS":"Designated","STATUS_YR":1996,"GOV_TYPE":"Not Reported","GOVSUBTYPE":"Not Applicable","OWN_TYPE":"Not Reported","OWNSUBTYPE":"Not Applicable","MANG_AUTH":"Not Reported","MANG_PLAN":"Not Reported","VERIF":"State Verified","METADATAID":1852,"PRNT_ISO3":"ARG","ISO3":"ARG","SUPP_INFO":"Not Applicable","CONS_OBJ":"Not Applicable","INLND_WTRS":"Not Reported","OECM_ASMT":"Not Applicable","layer":"WDPA_W~2"},"geometry":{"type":"MultiPoint","coordinates":[[-59.9173,-32.36616]]}},{"type":"Feature","properties":{"fid":13,"SITE_ID":555587108,"SITE_PID":"555587108","SITE_TYPE":"PA","NAME_ENG":"Cerro Chalten","NAME":"Cerro Chalten","DESIG":"Monumento Natural","DESIG_ENG":"Nature Monument","DESIG_TYPE":"National","IUCN_CAT":"III","INT_CRIT":"Not Applicable","REALM":"Terrestrial","REP_M_AREA":0,"REP_AREA":0.58,"NO_TAKE":"Not Applicable","NO_TK_AREA":0,"STATUS":"Designated","STATUS_YR":2000,"GOV_TYPE":"Not Reported","GOVSUBTYPE":"Not Applicable","OWN_TYPE":"Not Reported","OWNSUBTYPE":"Not Applicable","MANG_AUTH":"Not Reported","MANG_PLAN":"Not Reported","VERIF":"State Verified","METADATAID":1852,"PRNT_ISO3":"ARG","ISO3":"ARG","SUPP_INFO":"Not Applicable","CONS_OBJ":"Not Applicable","INLND_WTRS":"Not Reported","OECM_ASMT":"Not Applicable","layer":"WDPA_W~2"},"geometry":{"type":"MultiPoint","coordinates":[[-73.13072,-49.22725]]}},{"type":"Feature","properties":{"fid":14,"SITE_ID":555587109,"SITE_PID":"555587109","SITE_TYPE":"PA","NAME_ENG":"La Florida","NAME":"La Florida","DESIG":"Reserva Provincial","DESIG_ENG":"Provincial Reserve","DESIG_TYPE":"National","IUCN_CAT":"VI","INT_CRIT":"Not Applicable","REALM":"Terrestrial","REP_M_AREA":0,"REP_AREA":22.7,"NO_TAKE":"Not Applicable","NO_TK_AREA":0,"STATUS":"Designated","STATUS_YR":2004,"GOV_TYPE":"Not Reported","GOVSUBTYPE":"Not Applicable","OWN_TYPE":"Not Reported","OWNSUBTYPE":"Not Applicable","MANG_AUTH":"Not Reported","MANG_PLAN":"Not Reported","VERIF":"State Verified","METADATAID":1852,"PRNT_ISO3":"ARG","ISO3":"ARG","SUPP_INFO":"Not Applicable","CONS_OBJ":"Not Applicable","INLND_WTRS":"Not Reported","OECM_ASMT":"Not Applicable","layer":"WDPA_W~2"},"geometry":{"type":"MultiPoint","coordinates":[[-72.81887,-49.21054]]}},{"type":"Feature","properties":{"fid":15,"SITE_ID":555636306,"SITE_PID":"555636306","SITE_TYPE":"PA","NAME_ENG":"Abayuva","NAME":"Abayuva","DESIG":"Paisaje Protegido","DESIG_ENG":"Protected Landscape","DESIG_TYPE":"National","IUCN_CAT":"Not Reported","INT_CRIT":"Not Applicable","REALM":"Terrestrial","REP_M_AREA":0,"REP_AREA":2.15,"NO_TAKE":"Not Applicable","NO_TK_AREA":0,"STATUS":"Designated","STATUS_YR":1995,"GOV_TYPE":"Not Reported","GOVSUBTYPE":"Not Applicable","OWN_TYPE":"Not Reported","OWNSUBTYPE":"Not Applicable","MANG_AUTH":"Not Reported","MANG_PLAN":"Not Reported","VERIF":"State Verified","METADATAID":1852,"PRNT_ISO3":"ARG","ISO3":"ARG","SUPP_INFO":"Not Applicable","CONS_OBJ":"Not Applicable","INLND_WTRS":"Not Reported","OECM_ASMT":"Not Applicable","layer":"WDPA_W~2"},"geometry":{"type":"MultiPoint","coordinates":[[-58.01723,-31.38281]]}},{"type":"Feature","properties":{"fid":16,"SITE_ID":555636307,"SITE_PID":"555636307","SITE_TYPE":"PA","NAME_ENG":"Aconquija","NAME":"Aconquija","DESIG":"Parque Provincial","DESIG_ENG":"Provincial Park","DESIG_TYPE":"National","IUCN_CAT":"Not Reported","INT_CRIT":"Not Applicable","REALM":"Terrestrial","REP_M_AREA":0,"REP_AREA":5,"NO_TAKE":"Not Applicable","NO_TK_AREA":0,"STATUS":"Designated","STATUS_YR":1936,"GOV_TYPE":"Not Reported","GOVSUBTYPE":"Not Applicable","OWN_TYPE":"Not Reported","OWNSUBTYPE":"Not Applicable","MANG_AUTH":"Not Reported","MANG_PLAN":"Not Reported","VERIF":"State Verified","METADATAID":1852,"PRNT_ISO3":"ARG","ISO3":"ARG","SUPP_INFO":"Not Applicable","CONS_OBJ":"Not Applicable","INLND_WTRS":"Not Reported","OECM_ASMT":"Not Applicable","layer":"WDPA_W~2"},"geometry":{"type":"MultiPoint","coordinates":[[-65.36369,-26.79442]]}},{"type":"Feature","properties":{"fid":17,"SITE_ID":555636308,"SITE_PID":"555636308","SITE_TYPE":"PA","NAME_ENG":"Arboretum L.N. Alem","NAME":"Arboretum L.N. Alem","DESIG":"Reserva de Uso Múltiple","DESIG_ENG":"Multiple Use Reserve","DESIG_TYPE":"National","IUCN_CAT":"Not Reported","INT_CRIT":"Not Applicable","REALM":"Terrestrial","REP_M_AREA":0,"REP_AREA":0.36,"NO_TAKE":"Not Applicable","NO_TK_AREA":0,"STATUS":"Designated","STATUS_YR":1994,"GOV_TYPE":"Not Reported","GOVSUBTYPE":"Not Applicable","OWN_TYPE":"Not Reported","OWNSUBTYPE":"Not Applicable","MANG_AUTH":"Not Reported","MANG_PLAN":"Not Reported","VERIF":"State Verified","METADATAID":1852,"PRNT_ISO3":"ARG","ISO3":"ARG","SUPP_INFO":"Not Applicable","CONS_OBJ":"Not Applicable","INLND_WTRS":"Not Reported","OECM_ASMT":"Not Applicable","layer":"WDPA_W~2"},"geometry":{"type":"MultiPoint","coordinates":[[-55.27811,-27.51759]]}},{"type":"Feature","properties":{"fid":18,"SITE_ID":555636309,"SITE_PID":"555636309","SITE_TYPE":"PA","NAME_ENG":"Arroyo Ayui Grande","NAME":"Arroyo Ayui Grande","DESIG":"Reserva Privada","DESIG_ENG":"Private Reserve","DESIG_TYPE":"National","IUCN_CAT":"Not Reported","INT_CRIT":"Not Applicable","REALM":"Terrestrial","REP_M_AREA":0,"REP_AREA":2.15,"NO_TAKE":"Not Applicable","NO_TK_AREA":0,"STATUS":"Designated","STATUS_YR":2000,"GOV_TYPE":"Not Reported","GOVSUBTYPE":"Not Applicable","OWN_TYPE":"Not Reported","OWNSUBTYPE":"Not Applicable","MANG_AUTH":"Not Reported","MANG_PLAN":"Not Reported","VERIF":"State Verified","METADATAID":1852,"PRNT_ISO3":"ARG","ISO3":"ARG","SUPP_INFO":"Not Applicable","CONS_OBJ":"Not Applicable","INLND_WTRS":"Not Reported","OECM_ASMT":"Not Applicable","layer":"WDPA_W~2"},"geometry":{"type":"MultiPoint","coordinates":[[-58.10969,-31.21353]]}},{"type":"Feature","properties":{"fid":19,"SITE_ID":555636310,"SITE_PID":"555636310","SITE_TYPE":"PA","NAME_ENG":"Augusto Schulz","NAME":"Augusto Schulz","DESIG":"Reserva de Recursos","DESIG_ENG":"Resource Reserve","DESIG_TYPE":"National","IUCN_CAT":"Not Reported","INT_CRIT":"Not Applicable","REALM":"Terrestrial","REP_M_AREA":0,"REP_AREA":24.91,"NO_TAKE":"Not Applicable","NO_TK_AREA":0,"STATUS":"Designated","STATUS_YR":1999,"GOV_TYPE":"Not Reported","GOVSUBTYPE":"Not Applicable","OWN_TYPE":"Not Reported","OWNSUBTYPE":"Not Applicable","MANG_AUTH":"Not Reported","MANG_PLAN":"Not Reported","VERIF":"State Verified","METADATAID":1852,"PRNT_ISO3":"ARG","ISO3":"ARG","SUPP_INFO":"Not Applicable","CONS_OBJ":"Not Applicable","INLND_WTRS":"Not Reported","OECM_ASMT":"Not Applicable","layer":"WDPA_W~2"},"geometry":{"type":"MultiPoint","coordinates":[[-61.45065,-25.41603]]}},{"type":"Feature","properties":{"fid":20,"SITE_ID":555636312,"SITE_PID":"555636312","SITE_TYPE":"PA","NAME_ENG":"Bajo De Veliz","NAME":"Bajo De Veliz","DESIG":"Parque Provincial","DESIG_ENG":"Provincial Park","DESIG_TYPE":"National","IUCN_CAT":"Not Reported","INT_CRIT":"Not Applicable","REALM":"Terrestrial","REP_M_AREA":0,"REP_AREA":60,"NO_TAKE":"Not Applicable","NO_TK_AREA":0,"STATUS":"Designated","STATUS_YR":1989,"GOV_TYPE":"Not Reported","GOVSUBTYPE":"Not Applicable","OWN_TYPE":"Not Reported","OWNSUBTYPE":"Not Applicable","MANG_AUTH":"Not Reported","MANG_PLAN":"Not Reported","VERIF":"State Verified","METADATAID":1852,"PRNT_ISO3":"ARG","ISO3":"ARG","SUPP_INFO":"Not Applicable","CONS_OBJ":"Not Applicable","INLND_WTRS":"Not Reported","OECM_ASMT":"Not Applicable","layer":"WDPA_W~2"},"geometry":{"type":"MultiPoint","coordinates":[[-65.39788,-32.33268]]}},{"type":"Feature","properties":{"fid":21,"SITE_ID":555636313,"SITE_PID":"555636313","SITE_TYPE":"PA","NAME_ENG":"Caleta Valdés","NAME":"Caleta Valdés","DESIG":"Reserva Natural Turística","DESIG_ENG":"Natural Tourist Reserve","DESIG_TYPE":"National","IUCN_CAT":"Not Reported","INT_CRIT":"Not Applicable","REALM":"Terrestrial","REP_M_AREA":0,"REP_AREA":100,"NO_TAKE":"Not Applicable","NO_TK_AREA":0,"STATUS":"Designated","STATUS_YR":1977,"GOV_TYPE":"Not Reported","GOVSUBTYPE":"Not Applicable","OWN_TYPE":"Not Reported","OWNSUBTYPE":"Not Applicable","MANG_AUTH":"Not Reported","MANG_PLAN":"Not Reported","VERIF":"State Verified","METADATAID":1852,"PRNT_ISO3":"ARG","ISO3":"ARG","SUPP_INFO":"Not Applicable","CONS_OBJ":"Not Applicable","INLND_WTRS":"Not Reported","OECM_ASMT":"Not Applicable","layer":"WDPA_W~2"},"geometry":{"type":"MultiPoint","coordinates":[[-63.61721,-42.30448]]}},{"type":"Feature","properties":{"fid":22,"SITE_ID":555636314,"SITE_PID":"555636314","SITE_TYPE":"PA","NAME_ENG":"Camino La Luisa","NAME":"Camino La Luisa","DESIG":"Paisaje Protegido","DESIG_ENG":"Protected Landscape","DESIG_TYPE":"National","IUCN_CAT":"Not Reported","INT_CRIT":"Not Applicable","REALM":"Terrestrial","REP_M_AREA":0,"REP_AREA":0,"NO_TAKE":"Not Applicable","NO_TK_AREA":0,"STATUS":"Designated","STATUS_YR":2011,"GOV_TYPE":"Not Reported","GOVSUBTYPE":"Not Applicable","OWN_TYPE":"Not Reported","OWNSUBTYPE":"Not Applicable","MANG_AUTH":"Not Reported","MANG_PLAN":"Not Reported","VERIF":"State Verified","METADATAID":1852,"PRNT_ISO3":"ARG","ISO3":"ARG","SUPP_INFO":"Not Applicable","CONS_OBJ":"Not Applicable","INLND_WTRS":"Not Reported","OECM_ASMT":"Not Applicable","layer":"WDPA_W~2"},"geometry":{"type":"MultiPoint","coordinates":[[-64.45519,-40.109]]}},{"type":"Feature","properties":{"fid":23,"SITE_ID":555636315,"SITE_PID":"555636315","SITE_TYPE":"PA","NAME_ENG":"Caraguatay","NAME":"Caraguatay","DESIG":"Reserva Natural Ictica","DESIG_ENG":"Ictica Natural Reserve","DESIG_TYPE":"National","IUCN_CAT":"Not Reported","INT_CRIT":"Not Applicable","REALM":"Terrestrial","REP_M_AREA":0,"REP_AREA":0.52,"NO_TAKE":"Not Applicable","NO_TK_AREA":0,"STATUS":"Designated","STATUS_YR":1979,"GOV_TYPE":"Not Reported","GOVSUBTYPE":"Not Applicable","OWN_TYPE":"Not Reported","OWNSUBTYPE":"Not Applicable","MANG_AUTH":"Not Reported","MANG_PLAN":"Not Reported","VERIF":"State Verified","METADATAID":1852,"PRNT_ISO3":"ARG","ISO3":"ARG","SUPP_INFO":"Not Applicable","CONS_OBJ":"Not Applicable","INLND_WTRS":"Not Reported","OECM_ASMT":"Not Applicable","layer":"WDPA_W~2"},"geometry":{"type":"MultiPoint","coordinates":[[-54.78376,-26.56607]]}},{"type":"Feature","properties":{"fid":24,"SITE_ID":555636316,"SITE_PID":"555636316","SITE_TYPE":"PA","NAME_ENG":"Carpincho","NAME":"Carpincho","DESIG":"Reserva de Uso Múltiple","DESIG_ENG":"Multiple Use Reserve","DESIG_TYPE":"National","IUCN_CAT":"Not Reported","INT_CRIT":"Not Applicable","REALM":"Terrestrial","REP_M_AREA":0,"REP_AREA":3.75,"NO_TAKE":"Not Applicable","NO_TK_AREA":0,"STATUS":"Designated","STATUS_YR":1989,"GOV_TYPE":"Not Reported","GOVSUBTYPE":"Not Applicable","OWN_TYPE":"Not Reported","OWNSUBTYPE":"Not Applicable","MANG_AUTH":"Not Reported","MANG_PLAN":"Not Reported","VERIF":"State Verified","METADATAID":1852,"PRNT_ISO3":"ARG","ISO3":"ARG","SUPP_INFO":"Not Applicable","CONS_OBJ":"Not Applicable","INLND_WTRS":"Not Reported","OECM_ASMT":"Not Applicable","layer":"WDPA_W~2"},"geometry":{"type":"MultiPoint","coordinates":[[-59.03393,-31.58281]]}},{"type":"Feature","properties":{"fid":25,"SITE_ID":555636317,"SITE_PID":"555636317","SITE_TYPE":"PA","NAME_ENG":"Cerro Currumahuida","NAME":"Cerro Currumahuida","DESIG":"Reserva Forestal","DESIG_ENG":"Forest Reserve","DESIG_TYPE":"National","IUCN_CAT":"Not Reported","INT_CRIT":"Not Applicable","REALM":"Terrestrial","REP_M_AREA":0,"REP_AREA":32.5,"NO_TAKE":"Not Applicable","NO_TK_AREA":0,"STATUS":"Designated","STATUS_YR":1982,"GOV_TYPE":"Not Reported","GOVSUBTYPE":"Not Applicable","OWN_TYPE":"Not Reported","OWNSUBTYPE":"Not Applicable","MANG_AUTH":"Not Reported","MANG_PLAN":"Not Reported","VERIF":"State Verified","METADATAID":1852,"PRNT_ISO3":"ARG","ISO3":"ARG","SUPP_INFO":"Not Applicable","CONS_OBJ":"Not Applicable","INLND_WTRS":"Not Reported","OECM_ASMT":"Not Applicable","layer":"WDPA_W~2"},"geometry":{"type":"MultiPoint","coordinates":[[-71.61358,-42.19915]]}},{"type":"Feature","properties":{"fid":26,"SITE_ID":555636346,"SITE_PID":"555636346","SITE_TYPE":"PA","NAME_ENG":"Las Horquetas","NAME":"Las Horquetas","DESIG":"Reserva Forestal","DESIG_ENG":"Forest Reserve","DESIG_TYPE":"National","IUCN_CAT":"Not Reported","INT_CRIT":"Not Applicable","REALM":"Terrestrial","REP_M_AREA":0,"REP_AREA":25,"NO_TAKE":"Not Applicable","NO_TK_AREA":0,"STATUS":"Designated","STATUS_YR":1989,"GOV_TYPE":"Not Reported","GOVSUBTYPE":"Not Applicable","OWN_TYPE":"Not Reported","OWNSUBTYPE":"Not Applicable","MANG_AUTH":"Not Reported","MANG_PLAN":"Not Reported","VERIF":"State Verified","METADATAID":1852,"PRNT_ISO3":"ARG","ISO3":"ARG","SUPP_INFO":"Not Applicable","CONS_OBJ":"Not Applicable","INLND_WTRS":"Not Reported","OECM_ASMT":"Not Applicable","layer":"WDPA_W~2"},"geometry":{"type":"MultiPoint","coordinates":[[-70.78451,-43.46635]]}},{"type":"Feature","properties":{"fid":27,"SITE_ID":555636347,"SITE_PID":"555636347","SITE_TYPE":"PA","NAME_ENG":"Litoral Chaqueño","NAME":"Litoral Chaqueño","DESIG":"Parque Provincial","DESIG_ENG":"Provincial Park","DESIG_TYPE":"National","IUCN_CAT":"Not Reported","INT_CRIT":"Not Applicable","REALM":"Terrestrial","REP_M_AREA":0,"REP_AREA":100,"NO_TAKE":"Not Applicable","NO_TK_AREA":0,"STATUS":"Designated","STATUS_YR":1970,"GOV_TYPE":"Not Reported","GOVSUBTYPE":"Not Applicable","OWN_TYPE":"Not Reported","OWNSUBTYPE":"Not Applicable","MANG_AUTH":"Not Reported","MANG_PLAN":"Not Reported","VERIF":"State Verified","METADATAID":1852,"PRNT_ISO3":"ARG","ISO3":"ARG","SUPP_INFO":"Not Applicable","CONS_OBJ":"Not Applicable","INLND_WTRS":"Not Reported","OECM_ASMT":"Not Applicable","layer":"WDPA_W~2"},"geometry":{"type":"MultiPoint","coordinates":[[-58.91729,-27.55777]]}},{"type":"Feature","properties":{"fid":28,"SITE_ID":555636348,"SITE_PID":"555636348","SITE_TYPE":"PA","NAME_ENG":"Merced De Altapauca","NAME":"Merced De Altapauca","DESIG":"Refugio Privado Vida Silvestre","DESIG_ENG":"Private Wildlife Refuge","DESIG_TYPE":"National","IUCN_CAT":"VI","INT_CRIT":"Not Applicable","REALM":"Terrestrial","REP_M_AREA":0,"REP_AREA":6.23,"NO_TAKE":"Not Applicable","NO_TK_AREA":0,"STATUS":"Designated","STATUS_YR":2004,"GOV_TYPE":"Not Reported","GOVSUBTYPE":"Not Applicable","OWN_TYPE":"Not Reported","OWNSUBTYPE":"Not Applicable","MANG_AUTH":"Not Reported","MANG_PLAN":"Not Reported","VERIF":"State Verified","METADATAID":1852,"PRNT_ISO3":"ARG","ISO3":"ARG","SUPP_INFO":"Not Applicable","CONS_OBJ":"Not Applicable","INLND_WTRS":"Not Reported","OECM_ASMT":"Not Applicable","layer":"WDPA_W~2"},"geometry":{"type":"MultiPoint","coordinates":[[-65.69003,-28.41577]]}},{"type":"Feature","properties":{"fid":29,"SITE_ID":555636351,"SITE_PID":"555636351","SITE_TYPE":"PA","NAME_ENG":"Paso Viejo","NAME":"Paso Viejo","DESIG":"Refugio de Vida Silvestre","DESIG_ENG":"Wildlife Refuge","DESIG_TYPE":"National","IUCN_CAT":"Not Reported","INT_CRIT":"Not Applicable","REALM":"Terrestrial","REP_M_AREA":0,"REP_AREA":17.4,"NO_TAKE":"Not Applicable","NO_TK_AREA":0,"STATUS":"Designated","STATUS_YR":2005,"GOV_TYPE":"Not Reported","GOVSUBTYPE":"Not Applicable","OWN_TYPE":"Not Reported","OWNSUBTYPE":"Not Applicable","MANG_AUTH":"Not Reported","MANG_PLAN":"Not Reported","VERIF":"State Verified","METADATAID":1852,"PRNT_ISO3":"ARG","ISO3":"ARG","SUPP_INFO":"Not Applicable","CONS_OBJ":"Not Applicable","INLND_WTRS":"Not Reported","OECM_ASMT":"Not Applicable","layer":"WDPA_W~2"},"geometry":{"type":"MultiPoint","coordinates":[[-64.83175,-30.38672]]}},{"type":"Feature","properties":{"fid":30,"SITE_ID":555636352,"SITE_PID":"555636352","SITE_TYPE":"PA","NAME_ENG":"Potrero De San Lorenzo","NAME":"Potrero De San Lorenzo","DESIG":"Reserva Natural","DESIG_ENG":"National Reserve","DESIG_TYPE":"National","IUCN_CAT":"VI","INT_CRIT":"Not Applicable","REALM":"Terrestrial","REP_M_AREA":0,"REP_AREA":180,"NO_TAKE":"Not Applicable","NO_TK_AREA":0,"STATUS":"Designated","STATUS_YR":2015,"GOV_TYPE":"Not Reported","GOVSUBTYPE":"Not Applicable","OWN_TYPE":"Not Reported","OWNSUBTYPE":"Not Applicable","MANG_AUTH":"Not Reported","MANG_PLAN":"Not Reported","VERIF":"State Verified","METADATAID":1852,"PRNT_ISO3":"ARG","ISO3":"ARG","SUPP_INFO":"Not Applicable","CONS_OBJ":"Not Applicable","INLND_WTRS":"Not Reported","OECM_ASMT":"Not Applicable","layer":"WDPA_W~2"},"geometry":{"type":"MultiPoint","coordinates":[[-58.32278,-33.08961]]}},{"type":"Feature","properties":{"fid":31,"SITE_ID":555636353,"SITE_PID":"555636353","SITE_TYPE":"PA","NAME_ENG":"Presidencia De La Plaza","NAME":"Presidencia De La Plaza","DESIG":"Reserva Forestal","DESIG_ENG":"Forest Reserve","DESIG_TYPE":"National","IUCN_CAT":"Not Reported","INT_CRIT":"Not Applicable","REALM":"Terrestrial","REP_M_AREA":0,"REP_AREA":22.5,"NO_TAKE":"Not Applicable","NO_TK_AREA":0,"STATUS":"Designated","STATUS_YR":1935,"GOV_TYPE":"Not Reported","GOVSUBTYPE":"Not Applicable","OWN_TYPE":"Not Reported","OWNSUBTYPE":"Not Applicable","MANG_AUTH":"Not Reported","MANG_PLAN":"Not Reported","VERIF":"State Verified","METADATAID":1852,"PRNT_ISO3":"ARG","ISO3":"ARG","SUPP_INFO":"Not Applicable","CONS_OBJ":"Not Applicable","INLND_WTRS":"Not Reported","OECM_ASMT":"Not Applicable","layer":"WDPA_W~2"},"geometry":{"type":"MultiPoint","coordinates":[[-59.85603,-26.98327]]}},{"type":"Feature","properties":{"fid":32,"SITE_ID":555636354,"SITE_PID":"555636354","SITE_TYPE":"PA","NAME_ENG":"Presidencia Roque Sáenz Peña","NAME":"Presidencia Roque Sáenz Peña","DESIG":"Reserva de Uso Múltiple","DESIG_ENG":"Multiple Use Reserve","DESIG_TYPE":"National","IUCN_CAT":"Not Reported","INT_CRIT":"Not Applicable","REALM":"Terrestrial","REP_M_AREA":0,"REP_AREA":1.8,"NO_TAKE":"Not Applicable","NO_TK_AREA":0,"STATUS":"Designated","STATUS_YR":2001,"GOV_TYPE":"Not Reported","GOVSUBTYPE":"Not Applicable","OWN_TYPE":"Not Reported","OWNSUBTYPE":"Not Applicable","MANG_AUTH":"Not Reported","MANG_PLAN":"Not Reported","VERIF":"State Verified","METADATAID":1852,"PRNT_ISO3":"ARG","ISO3":"ARG","SUPP_INFO":"Not Applicable","CONS_OBJ":"Not Applicable","INLND_WTRS":"Not Reported","OECM_ASMT":"Not Applicable","layer":"WDPA_W~2"},"geometry":{"type":"MultiPoint","coordinates":[[-60.4397,-26.78989]]}},{"type":"Feature","properties":{"fid":33,"SITE_ID":555636355,"SITE_PID":"555636355","SITE_TYPE":"PA","NAME_ENG":"Punta Delgada","NAME":"Punta Delgada","DESIG":"Reserva Natural Turística","DESIG_ENG":"Natural Tourist Reserve","DESIG_TYPE":"National","IUCN_CAT":"Not Reported","INT_CRIT":"Not Applicable","REALM":"Marine","REP_M_AREA":0,"REP_AREA":28.29,"NO_TAKE":"Not Reported","NO_TK_AREA":0,"STATUS":"Designated","STATUS_YR":1969,"GOV_TYPE":"Not Reported","GOVSUBTYPE":"Not Applicable","OWN_TYPE":"Not Reported","OWNSUBTYPE":"Not Applicable","MANG_AUTH":"Not Reported","MANG_PLAN":"Not Reported","VERIF":"State Verified","METADATAID":1852,"PRNT_ISO3":"ARG","ISO3":"ARG","SUPP_INFO":"Not Applicable","CONS_OBJ":"Not Applicable","INLND_WTRS":"Not Applicable","OECM_ASMT":"Not Applicable","layer":"WDPA_W~2"},"geometry":{"type":"MultiPoint","coordinates":[[-63.63105,-42.74479]]}},{"type":"Feature","properties":{"fid":34,"SITE_ID":555636356,"SITE_PID":"555636356","SITE_TYPE":"PA","NAME_ENG":"Punta Norte","NAME":"Punta Norte","DESIG":"Reserva Natural Turística","DESIG_ENG":"Natural Tourist Reserve","DESIG_TYPE":"National","IUCN_CAT":"Not Reported","INT_CRIT":"Not Applicable","REALM":"Marine","REP_M_AREA":0,"REP_AREA":0.06,"NO_TAKE":"Not Reported","NO_TK_AREA":0,"STATUS":"Designated","STATUS_YR":1967,"GOV_TYPE":"Not Reported","GOVSUBTYPE":"Not Applicable","OWN_TYPE":"Not Reported","OWNSUBTYPE":"Not Applicable","MANG_AUTH":"Not Reported","MANG_PLAN":"Not Reported","VERIF":"State Verified","METADATAID":1852,"PRNT_ISO3":"ARG","ISO3":"ARG","SUPP_INFO":"Not Applicable","CONS_OBJ":"Not Applicable","INLND_WTRS":"Not Applicable","OECM_ASMT":"Not Applicable","layer":"WDPA_W~2"},"geometry":{"type":"MultiPoint","coordinates":[[-63.76754,-42.06637]]}},{"type":"Feature","properties":{"fid":35,"SITE_ID":555636357,"SITE_PID":"555636357","SITE_TYPE":"PA","NAME_ENG":"Punta Pirámides","NAME":"Punta Pirámides","DESIG":"Reserva Natural Turística","DESIG_ENG":"Natural Tourist Reserve","DESIG_TYPE":"National","IUCN_CAT":"Not Reported","INT_CRIT":"Not Applicable","REALM":"Marine","REP_M_AREA":0,"REP_AREA":1.32,"NO_TAKE":"Not Reported","NO_TK_AREA":0,"STATUS":"Designated","STATUS_YR":1974,"GOV_TYPE":"Not Reported","GOVSUBTYPE":"Not Applicable","OWN_TYPE":"Not Reported","OWNSUBTYPE":"Not Applicable","MANG_AUTH":"Not Reported","MANG_PLAN":"Not Reported","VERIF":"State Verified","METADATAID":1852,"PRNT_ISO3":"ARG","ISO3":"ARG","SUPP_INFO":"Not Applicable","CONS_OBJ":"Not Applicable","INLND_WTRS":"Not Applicable","OECM_ASMT":"Not Applicable","layer":"WDPA_W~2"},"geometry":{"type":"MultiPoint","coordinates":[[-64.31238,-42.57906]]}},{"type":"Feature","properties":{"fid":36,"SITE_ID":555636358,"SITE_PID":"555636358","SITE_TYPE":"PA","NAME_ENG":"Quebracho de la Legua","NAME":"Quebracho de la Legua","DESIG":"Reserva Natural","DESIG_ENG":"National Reserve","DESIG_TYPE":"National","IUCN_CAT":"Not Reported","INT_CRIT":"Not Applicable","REALM":"Terrestrial","REP_M_AREA":0,"REP_AREA":22.42,"NO_TAKE":"Not Applicable","NO_TK_AREA":0,"STATUS":"Designated","STATUS_YR":1979,"GOV_TYPE":"Not Reported","GOVSUBTYPE":"Not Applicable","OWN_TYPE":"Not Reported","OWNSUBTYPE":"Not Applicable","MANG_AUTH":"Not Reported","MANG_PLAN":"Not Reported","VERIF":"State Verified","METADATAID":1852,"PRNT_ISO3":"ARG","ISO3":"ARG","SUPP_INFO":"Not Applicable","CONS_OBJ":"Not Applicable","INLND_WTRS":"Not Reported","OECM_ASMT":"Not Applicable","layer":"WDPA_W~2"},"geometry":{"type":"MultiPoint","coordinates":[[-66.90967,-32.35966]]}},{"type":"Feature","properties":{"fid":37,"SITE_ID":555636359,"SITE_PID":"555636359","SITE_TYPE":"PA","NAME_ENG":"Rincon del Iguazú","NAME":"Rincon del Iguazú","DESIG":"Refugio Privado de Vida Silvestre","DESIG_ENG":"Private Wildlife Refuge","DESIG_TYPE":"National","IUCN_CAT":"Not Reported","INT_CRIT":"Not Applicable","REALM":"Terrestrial","REP_M_AREA":0,"REP_AREA":5.5,"NO_TAKE":"Not Applicable","NO_TK_AREA":0,"STATUS":"Designated","STATUS_YR":1996,"GOV_TYPE":"Not Reported","GOVSUBTYPE":"Not Applicable","OWN_TYPE":"Not Reported","OWNSUBTYPE":"Not Applicable","MANG_AUTH":"Not Reported","MANG_PLAN":"Not Reported","VERIF":"State Verified","METADATAID":1852,"PRNT_ISO3":"ARG","ISO3":"ARG","SUPP_INFO":"Not Applicable","CONS_OBJ":"Not Applicable","INLND_WTRS":"Not Reported","OECM_ASMT":"Not Applicable","layer":"WDPA_W~2"},"geometry":{"type":"MultiPoint","coordinates":[[-54.06706,-25.61605]]}},{"type":"Feature","properties":{"fid":38,"SITE_ID":555636360,"SITE_PID":"555636360","SITE_TYPE":"PA","NAME_ENG":"Salto Kuppers","NAME":"Salto Kuppers","DESIG":"Parque Natural Municipal","DESIG_ENG":"Municipal Nature Park","DESIG_TYPE":"National","IUCN_CAT":"Not Reported","INT_CRIT":"Not Applicable","REALM":"Terrestrial","REP_M_AREA":0,"REP_AREA":0.64,"NO_TAKE":"Not Applicable","NO_TK_AREA":0,"STATUS":"Designated","STATUS_YR":1995,"GOV_TYPE":"Not Reported","GOVSUBTYPE":"Not Applicable","OWN_TYPE":"Not Reported","OWNSUBTYPE":"Not Applicable","MANG_AUTH":"Not Reported","MANG_PLAN":"Not Reported","VERIF":"State Verified","METADATAID":1852,"PRNT_ISO3":"ARG","ISO3":"ARG","SUPP_INFO":"Not Applicable","CONS_OBJ":"Not Applicable","INLND_WTRS":"Not Reported","OECM_ASMT":"Not Applicable","layer":"WDPA_W~2"},"geometry":{"type":"MultiPoint","coordinates":[[-54.68375,-26.43273]]}},{"type":"Feature","properties":{"fid":39,"SITE_ID":555636361,"SITE_PID":"555636361","SITE_TYPE":"PA","NAME_ENG":"San Martín Del Alto Negro","NAME":"San Martín Del Alto Negro","DESIG":"Refugio Privado de Vida Silvestre","DESIG_ENG":"Private Wildlife Refuge","DESIG_TYPE":"National","IUCN_CAT":"VI","INT_CRIT":"Not Applicable","REALM":"Terrestrial","REP_M_AREA":0,"REP_AREA":452,"NO_TAKE":"Not Applicable","NO_TK_AREA":0,"STATUS":"Designated","STATUS_YR":1995,"GOV_TYPE":"Not Reported","GOVSUBTYPE":"Not Applicable","OWN_TYPE":"Not Reported","OWNSUBTYPE":"Not Applicable","MANG_AUTH":"Not Reported","MANG_PLAN":"Not Reported","VERIF":"State Verified","METADATAID":1852,"PRNT_ISO3":"ARG","ISO3":"ARG","SUPP_INFO":"Not Applicable","CONS_OBJ":"Not Applicable","INLND_WTRS":"Not Reported","OECM_ASMT":"Not Applicable","layer":"WDPA_W~2"},"geometry":{"type":"MultiPoint","coordinates":[[-65.25083,-33.34948]]}},{"type":"Feature","properties":{"fid":40,"SITE_ID":555636362,"SITE_PID":"555636362","SITE_TYPE":"PA","NAME_ENG":"Santa Teresa","NAME":"Santa Teresa","DESIG":"Refugio Privado de Vida Silvestre","DESIG_ENG":"Private Wildlife Refuge","DESIG_TYPE":"National","IUCN_CAT":"VI","INT_CRIT":"Not Applicable","REALM":"Terrestrial","REP_M_AREA":0,"REP_AREA":750,"NO_TAKE":"Not Applicable","NO_TK_AREA":0,"STATUS":"Designated","STATUS_YR":2004,"GOV_TYPE":"Not Reported","GOVSUBTYPE":"Not Applicable","OWN_TYPE":"Not Reported","OWNSUBTYPE":"Not Applicable","MANG_AUTH":"Not Reported","MANG_PLAN":"Not Reported","VERIF":"State Verified","METADATAID":1852,"PRNT_ISO3":"ARG","ISO3":"ARG","SUPP_INFO":"Not Applicable","CONS_OBJ":"Not Applicable","INLND_WTRS":"Not Reported","OECM_ASMT":"Not Applicable","layer":"WDPA_W~2"},"geometry":{"type":"MultiPoint","coordinates":[[-70.23524,-39.90516]]}},{"type":"Feature","properties":{"fid":41,"SITE_ID":555636363,"SITE_PID":"555636363","SITE_TYPE":"PA","NAME_ENG":"Sierra de los Comechingones","NAME":"Sierra de los Comechingones","DESIG":"Unidad de Conservación","DESIG_ENG":"Conservation Unit","DESIG_TYPE":"National","IUCN_CAT":"Not Reported","INT_CRIT":"Not Applicable","REALM":"Terrestrial","REP_M_AREA":0,"REP_AREA":311,"NO_TAKE":"Not Applicable","NO_TK_AREA":0,"STATUS":"Designated","STATUS_YR":2003,"GOV_TYPE":"Not Reported","GOVSUBTYPE":"Not Applicable","OWN_TYPE":"Not Reported","OWNSUBTYPE":"Not Applicable","MANG_AUTH":"Not Reported","MANG_PLAN":"Not Reported","VERIF":"State Verified","METADATAID":1852,"PRNT_ISO3":"ARG","ISO3":"ARG","SUPP_INFO":"Not Applicable","CONS_OBJ":"Not Applicable","INLND_WTRS":"Not Reported","OECM_ASMT":"Not Applicable","layer":"WDPA_W~2"},"geometry":{"type":"MultiPoint","coordinates":[[-64.93803,-32.55466]]}},{"type":"Feature","properties":{"fid":42,"SITE_ID":555636365,"SITE_PID":"555636365","SITE_TYPE":"PA","NAME_ENG":"Vaquerías","NAME":"Vaquerías","DESIG":"Reserva Natural","DESIG_ENG":"National Reserve","DESIG_TYPE":"National","IUCN_CAT":"VI","INT_CRIT":"Not Applicable","REALM":"Terrestrial","REP_M_AREA":0,"REP_AREA":3.8,"NO_TAKE":"Not Applicable","NO_TK_AREA":0,"STATUS":"Designated","STATUS_YR":1991,"GOV_TYPE":"Not Reported","GOVSUBTYPE":"Not Applicable","OWN_TYPE":"Not Reported","OWNSUBTYPE":"Not Applicable","MANG_AUTH":"Not Reported","MANG_PLAN":"Not Reported","VERIF":"State Verified","METADATAID":1852,"PRNT_ISO3":"ARG","ISO3":"ARG","SUPP_INFO":"Not Applicable","CONS_OBJ":"Not Applicable","INLND_WTRS":"Not Reported","OECM_ASMT":"Not Applicable","layer":"WDPA_W~2"},"geometry":{"type":"MultiPoint","coordinates":[[-64.55079,-31.11611]]}},{"type":"Feature","properties":{"fid":43,"SITE_ID":555636366,"SITE_PID":"555636366","SITE_TYPE":"PA","NAME_ENG":"Vira Pita","NAME":"Vira Pita","DESIG":"Parque Natural Provincial","DESIG_ENG":"Municipal Nature Park","DESIG_TYPE":"National","IUCN_CAT":"Not Reported","INT_CRIT":"Not Applicable","REALM":"Terrestrial","REP_M_AREA":0,"REP_AREA":6.15,"NO_TAKE":"Not Applicable","NO_TK_AREA":0,"STATUS":"Designated","STATUS_YR":1963,"GOV_TYPE":"Not Reported","GOVSUBTYPE":"Not Applicable","OWN_TYPE":"Not Reported","OWNSUBTYPE":"Not Applicable","MANG_AUTH":"Not Reported","MANG_PLAN":"Not Reported","VERIF":"State Verified","METADATAID":1852,"PRNT_ISO3":"ARG","ISO3":"ARG","SUPP_INFO":"Not Applicable","CONS_OBJ":"Not Applicable","INLND_WTRS":"Not Reported","OECM_ASMT":"Not Applicable","layer":"WDPA_W~2"},"geometry":{"type":"MultiPoint","coordinates":[[-59.5097,-29.22129]]}},{"type":"Feature","properties":{"fid":44,"SITE_ID":555636367,"SITE_PID":"555636367","SITE_TYPE":"PA","NAME_ENG":"Yacutinga","NAME":"Yacutinga","DESIG":"Refugio Privado de Vida Silvestre","DESIG_ENG":"Private Wildlife Refuge","DESIG_TYPE":"National","IUCN_CAT":"Not Reported","INT_CRIT":"Not Applicable","REALM":"Terrestrial","REP_M_AREA":0,"REP_AREA":5.5,"NO_TAKE":"Not Applicable","NO_TK_AREA":0,"STATUS":"Designated","STATUS_YR":2000,"GOV_TYPE":"Not Reported","GOVSUBTYPE":"Not Applicable","OWN_TYPE":"Not Reported","OWNSUBTYPE":"Not Applicable","MANG_AUTH":"Not Reported","MANG_PLAN":"Not Reported","VERIF":"State Verified","METADATAID":1852,"PRNT_ISO3":"ARG","ISO3":"ARG","SUPP_INFO":"Not Applicable","CONS_OBJ":"Not Applicable","INLND_WTRS":"Not Reported","OECM_ASMT":"Not Applicable","layer":"WDPA_W~2"},"geometry":{"type":"MultiPoint","coordinates":[[-54.11416,-25.94942]]}},{"type":"Feature","properties":{"fid":45,"SITE_ID":555636368,"SITE_PID":"555636368","SITE_TYPE":"PA","NAME_ENG":"Yuqueri","NAME":"Yuqueri","DESIG":"Reserva Privada","DESIG_ENG":"Private Reserve","DESIG_TYPE":"National","IUCN_CAT":"VI","INT_CRIT":"Not Applicable","REALM":"Terrestrial","REP_M_AREA":0,"REP_AREA":1,"NO_TAKE":"Not Applicable","NO_TK_AREA":0,"STATUS":"Designated","STATUS_YR":2005,"GOV_TYPE":"Not Reported","GOVSUBTYPE":"Not Applicable","OWN_TYPE":"Not Reported","OWNSUBTYPE":"Not Applicable","MANG_AUTH":"Not Reported","MANG_PLAN":"Not Reported","VERIF":"State Verified","METADATAID":1852,"PRNT_ISO3":"ARG","ISO3":"ARG","SUPP_INFO":"Not Applicable","CONS_OBJ":"Not Applicable","INLND_WTRS":"Not Reported","OECM_ASMT":"Not Applicable","layer":"WDPA_W~2"},"geometry":{"type":"MultiPoint","coordinates":[[-58.22205,-31.25937]]}},{"type":"Feature","properties":{"fid":46,"SITE_ID":555636369,"SITE_PID":"555636369","SITE_TYPE":"PA","NAME_ENG":"Zona Protección de Aves Silvestres","NAME":"Zona Protección de Aves Silvestres","DESIG":"Paisaje Protegido","DESIG_ENG":"Protected Landscape","DESIG_TYPE":"National","IUCN_CAT":"Not Reported","INT_CRIT":"Not Applicable","REALM":"Terrestrial","REP_M_AREA":0,"REP_AREA":0.98,"NO_TAKE":"Not Applicable","NO_TK_AREA":0,"STATUS":"Designated","STATUS_YR":1993,"GOV_TYPE":"Not Reported","GOVSUBTYPE":"Not Applicable","OWN_TYPE":"Not Reported","OWNSUBTYPE":"Not Applicable","MANG_AUTH":"Not Reported","MANG_PLAN":"Not Reported","VERIF":"State Verified","METADATAID":1852,"PRNT_ISO3":"ARG","ISO3":"ARG","SUPP_INFO":"Not Applicable","CONS_OBJ":"Not Applicable","INLND_WTRS":"Not Reported","OECM_ASMT":"Not Applicable","layer":"WDPA_W~2"},"geometry":{"type":"MultiPoint","coordinates":[[-58.00056,-31.33281]]}},{"type":"Feature","properties":{"fid":47,"SITE_ID":555637351,"SITE_PID":"555637351","SITE_TYPE":"PA","NAME_ENG":"Isoró","NAME":"Isoró","DESIG":"Reserva Ictica","DESIG_ENG":"Ictica Reserve","DESIG_TYPE":"National","IUCN_CAT":"VI","INT_CRIT":"Not Applicable","REALM":"Terrestrial","REP_M_AREA":0,"REP_AREA":1000,"NO_TAKE":"Not Applicable","NO_TK_AREA":0,"STATUS":"Designated","STATUS_YR":1984,"GOV_TYPE":"Not Reported","GOVSUBTYPE":"Not Applicable","OWN_TYPE":"Not Reported","OWNSUBTYPE":"Not Applicable","MANG_AUTH":"Not Reported","MANG_PLAN":"Not Reported","VERIF":"State Verified","METADATAID":1852,"PRNT_ISO3":"ARG","ISO3":"ARG","SUPP_INFO":"Not Applicable","CONS_OBJ":"Not Applicable","INLND_WTRS":"Not Reported","OECM_ASMT":"Not Applicable","layer":"WDPA_W~2"},"geometry":{"type":"MultiPoint","coordinates":[[-59.44063,-29.43221]]}},{"type":"Feature","properties":{"fid":48,"SITE_ID":555637352,"SITE_PID":"555637352","SITE_TYPE":"PA","NAME_ENG":"Aguas Chiquitas","NAME":"Aguas Chiquitas","DESIG":"Reserva Natural","DESIG_ENG":"Natural reserve","DESIG_TYPE":"National","IUCN_CAT":"VI","INT_CRIT":"Not Applicable","REALM":"Terrestrial","REP_M_AREA":0,"REP_AREA":31.65,"NO_TAKE":"Not Applicable","NO_TK_AREA":0,"STATUS":"Designated","STATUS_YR":1982,"GOV_TYPE":"Not Reported","GOVSUBTYPE":"Not Applicable","OWN_TYPE":"Not Reported","OWNSUBTYPE":"Not Applicable","MANG_AUTH":"Not Reported","MANG_PLAN":"Not Reported","VERIF":"State Verified","METADATAID":1852,"PRNT_ISO3":"ARG","ISO3":"ARG","SUPP_INFO":"Not Applicable","CONS_OBJ":"Not Applicable","INLND_WTRS":"Not Reported","OECM_ASMT":"Not Applicable","layer":"WDPA_W~2"},"geometry":{"type":"MultiPoint","coordinates":[[-65.20733,-26.612]]}},{"type":"Feature","properties":{"fid":49,"SITE_ID":555637353,"SITE_PID":"555637353","SITE_TYPE":"PA","NAME_ENG":"Isla del Sol","NAME":"Isla del Sol","DESIG":"Reserva Municipal","DESIG_ENG":"Municipal Reserve","DESIG_TYPE":"National","IUCN_CAT":"VI","INT_CRIT":"Not Applicable","REALM":"Terrestrial","REP_M_AREA":0,"REP_AREA":2,"NO_TAKE":"Not Applicable","NO_TK_AREA":0,"STATUS":"Designated","STATUS_YR":1993,"GOV_TYPE":"Not Reported","GOVSUBTYPE":"Not Applicable","OWN_TYPE":"Not Reported","OWNSUBTYPE":"Not Applicable","MANG_AUTH":"Not Reported","MANG_PLAN":"Not Reported","VERIF":"State Verified","METADATAID":1852,"PRNT_ISO3":"ARG","ISO3":"ARG","SUPP_INFO":"Not Applicable","CONS_OBJ":"Not Applicable","INLND_WTRS":"Not Reported","OECM_ASMT":"Not Applicable","layer":"WDPA_W~2"},"geometry":{"type":"MultiPoint","coordinates":[[-60.3308,-33.21739]]}},{"type":"Feature","properties":{"fid":50,"SITE_ID":555636318,"SITE_PID":"555636318","SITE_TYPE":"PA","NAME_ENG":"Cerro De La Ventana","NAME":"Cerro De La Ventana","DESIG":"Monumento Natural","DESIG_ENG":"Nature Monument","DESIG_TYPE":"National","IUCN_CAT":"Not Reported","INT_CRIT":"Not Applicable","REALM":"Terrestrial","REP_M_AREA":0,"REP_AREA":6.8,"NO_TAKE":"Not Applicable","NO_TK_AREA":0,"STATUS":"Designated","STATUS_YR":1995,"GOV_TYPE":"Not Reported","GOVSUBTYPE":"Not Applicable","OWN_TYPE":"Not Reported","OWNSUBTYPE":"Not Applicable","MANG_AUTH":"Not Reported","MANG_PLAN":"Not Reported","VERIF":"State Verified","METADATAID":1852,"PRNT_ISO3":"ARG","ISO3":"ARG","SUPP_INFO":"Not Applicable","CONS_OBJ":"Not Applicable","INLND_WTRS":"Not Reported","OECM_ASMT":"Not Applicable","layer":"WDPA_W~2"},"geometry":{"type":"MultiPoint","coordinates":[[-61.96229,-38.08436]]}},{"type":"Feature","properties":{"fid":51,"SITE_ID":555636319,"SITE_PID":"555636319","SITE_TYPE":"PA","NAME_ENG":"Cerro Pirque","NAME":"Cerro Pirque","DESIG":"Parque Provincial","DESIG_ENG":"Provincial Park","DESIG_TYPE":"National","IUCN_CAT":"Not Reported","INT_CRIT":"Not Applicable","REALM":"Terrestrial","REP_M_AREA":0,"REP_AREA":7.7,"NO_TAKE":"Not Applicable","NO_TK_AREA":0,"STATUS":"Designated","STATUS_YR":1993,"GOV_TYPE":"Not Reported","GOVSUBTYPE":"Not Applicable","OWN_TYPE":"Not Reported","OWNSUBTYPE":"Not Applicable","MANG_AUTH":"Not Reported","MANG_PLAN":"Not Reported","VERIF":"State Verified","METADATAID":1852,"PRNT_ISO3":"ARG","ISO3":"ARG","SUPP_INFO":"Not Applicable","CONS_OBJ":"Not Applicable","INLND_WTRS":"Not Reported","OECM_ASMT":"Not Applicable","layer":"WDPA_W~2"},"geometry":{"type":"MultiPoint","coordinates":[[-71.43451,-42.19964]]}},{"type":"Feature","properties":{"fid":52,"SITE_ID":555636320,"SITE_PID":"555636320","SITE_TYPE":"PA","NAME_ENG":"Cerro San Bernardo","NAME":"Cerro San Bernardo","DESIG":"Reserva Municipal","DESIG_ENG":"Municipal Reserve","DESIG_TYPE":"National","IUCN_CAT":"Not Reported","INT_CRIT":"Not Applicable","REALM":"Terrestrial","REP_M_AREA":0,"REP_AREA":0,"NO_TAKE":"Not Applicable","NO_TK_AREA":0,"STATUS":"Designated","STATUS_YR":1991,"GOV_TYPE":"Not Reported","GOVSUBTYPE":"Not Applicable","OWN_TYPE":"Not Reported","OWNSUBTYPE":"Not Applicable","MANG_AUTH":"Not Reported","MANG_PLAN":"Not Reported","VERIF":"State Verified","METADATAID":1852,"PRNT_ISO3":"ARG","ISO3":"ARG","SUPP_INFO":"Not Applicable","CONS_OBJ":"Not Applicable","INLND_WTRS":"Not Reported","OECM_ASMT":"Not Applicable","layer":"WDPA_W~2"},"geometry":{"type":"MultiPoint","coordinates":[[-65.36744,-24.88267]]}},{"type":"Feature","properties":{"fid":53,"SITE_ID":555636321,"SITE_PID":"555636321","SITE_TYPE":"PA","NAME_ENG":"Colonias Unidas","NAME":"Colonias Unidas","DESIG":"Reserva de Uso Múltiple","DESIG_ENG":"Multiple Use Reserve","DESIG_TYPE":"National","IUCN_CAT":"Not Reported","INT_CRIT":"Not Applicable","REALM":"Terrestrial","REP_M_AREA":0,"REP_AREA":50.42,"NO_TAKE":"Not Applicable","NO_TK_AREA":0,"STATUS":"Designated","STATUS_YR":2003,"GOV_TYPE":"Not Reported","GOVSUBTYPE":"Not Applicable","OWN_TYPE":"Not Reported","OWNSUBTYPE":"Not Applicable","MANG_AUTH":"Not Reported","MANG_PLAN":"Not Reported","VERIF":"State Verified","METADATAID":1852,"PRNT_ISO3":"ARG","ISO3":"ARG","SUPP_INFO":"Not Applicable","CONS_OBJ":"Not Applicable","INLND_WTRS":"Not Reported","OECM_ASMT":"Not Applicable","layer":"WDPA_W~2"},"geometry":{"type":"MultiPoint","coordinates":[[-59.62668,-26.69932]]}},{"type":"Feature","properties":{"fid":54,"SITE_ID":555636322,"SITE_PID":"555636322","SITE_TYPE":"PA","NAME_ENG":"El Cachape","NAME":"El Cachape","DESIG":"Refugio Privado de Vida Silvestre","DESIG_ENG":"Private Wildlife Refuge","DESIG_TYPE":"National","IUCN_CAT":"Not Reported","INT_CRIT":"Not Applicable","REALM":"Terrestrial","REP_M_AREA":0,"REP_AREA":17.5,"NO_TAKE":"Not Applicable","NO_TK_AREA":0,"STATUS":"Designated","STATUS_YR":1990,"GOV_TYPE":"Not Reported","GOVSUBTYPE":"Not Applicable","OWN_TYPE":"Not Reported","OWNSUBTYPE":"Not Applicable","MANG_AUTH":"Not Reported","MANG_PLAN":"Not Reported","VERIF":"State Verified","METADATAID":1852,"PRNT_ISO3":"ARG","ISO3":"ARG","SUPP_INFO":"Not Applicable","CONS_OBJ":"Not Applicable","INLND_WTRS":"Not Reported","OECM_ASMT":"Not Applicable","layer":"WDPA_W~2"},"geometry":{"type":"MultiPoint","coordinates":[[-59.13391,-26.81606]]}},{"type":"Feature","properties":{"fid":55,"SITE_ID":555636323,"SITE_PID":"555636323","SITE_TYPE":"PA","NAME_ENG":"El Mangrullo","NAME":"El Mangrullo","DESIG":"Refugio Natural Privado","DESIG_ENG":"Private Nature Refuge","DESIG_TYPE":"National","IUCN_CAT":"Not Reported","INT_CRIT":"Not Applicable","REALM":"Terrestrial","REP_M_AREA":0,"REP_AREA":180,"NO_TAKE":"Not Applicable","NO_TK_AREA":0,"STATUS":"Designated","STATUS_YR":2006,"GOV_TYPE":"Not Reported","GOVSUBTYPE":"Not Applicable","OWN_TYPE":"Not Reported","OWNSUBTYPE":"Not Applicable","MANG_AUTH":"Not Reported","MANG_PLAN":"Not Reported","VERIF":"State Verified","METADATAID":1852,"PRNT_ISO3":"ARG","ISO3":"ARG","SUPP_INFO":"Not Applicable","CONS_OBJ":"Not Applicable","INLND_WTRS":"Not Reported","OECM_ASMT":"Not Applicable","layer":"WDPA_W~2"},"geometry":{"type":"MultiPoint","coordinates":[[-64.9589,-28.12893]]}},{"type":"Feature","properties":{"fid":56,"SITE_ID":555636324,"SITE_PID":"555636324","SITE_TYPE":"PA","NAME_ENG":"El Puelo","NAME":"El Puelo","DESIG":"Reserva Forestal","DESIG_ENG":"Forest Reserve","DESIG_TYPE":"National","IUCN_CAT":"Not Reported","INT_CRIT":"Not Applicable","REALM":"Terrestrial","REP_M_AREA":0,"REP_AREA":0.6,"NO_TAKE":"Not Applicable","NO_TK_AREA":0,"STATUS":"Designated","STATUS_YR":1955,"GOV_TYPE":"Not Reported","GOVSUBTYPE":"Not Applicable","OWN_TYPE":"Not Reported","OWNSUBTYPE":"Not Applicable","MANG_AUTH":"Not Reported","MANG_PLAN":"Not Reported","VERIF":"State Verified","METADATAID":1852,"PRNT_ISO3":"ARG","ISO3":"ARG","SUPP_INFO":"Not Applicable","CONS_OBJ":"Not Applicable","INLND_WTRS":"Not Reported","OECM_ASMT":"Not Applicable","layer":"WDPA_W~2"},"geometry":{"type":"MultiPoint","coordinates":[[-71.60118,-42.1163]]}},{"type":"Feature","properties":{"fid":57,"SITE_ID":555636325,"SITE_PID":"555636325","SITE_TYPE":"PA","NAME_ENG":"El Tabaquillo - Mogote Bayo","NAME":"El Tabaquillo - Mogote Bayo","DESIG":"Reserva Privada","DESIG_ENG":"Private Reserve","DESIG_TYPE":"National","IUCN_CAT":"Not Reported","INT_CRIT":"Not Applicable","REALM":"Terrestrial","REP_M_AREA":0,"REP_AREA":2.5,"NO_TAKE":"Not Applicable","NO_TK_AREA":0,"STATUS":"Designated","STATUS_YR":1991,"GOV_TYPE":"Not Reported","GOVSUBTYPE":"Not Applicable","OWN_TYPE":"Not Reported","OWNSUBTYPE":"Not Applicable","MANG_AUTH":"Not Reported","MANG_PLAN":"Not Reported","VERIF":"State Verified","METADATAID":1852,"PRNT_ISO3":"ARG","ISO3":"ARG","SUPP_INFO":"Not Applicable","CONS_OBJ":"Not Applicable","INLND_WTRS":"Not Reported","OECM_ASMT":"Not Applicable","layer":"WDPA_W~2"},"geometry":{"type":"MultiPoint","coordinates":[[-64.97356,-32.32981]]}},{"type":"Feature","properties":{"fid":58,"SITE_ID":555636326,"SITE_PID":"555636326","SITE_TYPE":"PA","NAME_ENG":"El Talar","NAME":"El Talar","DESIG":"Reserva Privada","DESIG_ENG":"Private Reserve","DESIG_TYPE":"National","IUCN_CAT":"Not Reported","INT_CRIT":"Not Applicable","REALM":"Terrestrial","REP_M_AREA":0,"REP_AREA":1.8,"NO_TAKE":"Not Applicable","NO_TK_AREA":0,"STATUS":"Designated","STATUS_YR":2005,"GOV_TYPE":"Not Reported","GOVSUBTYPE":"Not Applicable","OWN_TYPE":"Not Reported","OWNSUBTYPE":"Not Applicable","MANG_AUTH":"Not Reported","MANG_PLAN":"Not Reported","VERIF":"State Verified","METADATAID":1852,"PRNT_ISO3":"ARG","ISO3":"ARG","SUPP_INFO":"Not Applicable","CONS_OBJ":"Not Applicable","INLND_WTRS":"Not Reported","OECM_ASMT":"Not Applicable","layer":"WDPA_W~2"},"geometry":{"type":"MultiPoint","coordinates":[[-58.14152,-31.54416]]}},{"type":"Feature","properties":{"fid":59,"SITE_ID":555636327,"SITE_PID":"555636327","SITE_TYPE":"PA","NAME_ENG":"Escuela Justo De Urquiza","NAME":"Escuela Justo De Urquiza","DESIG":"Reserva de Uso Múltiple","DESIG_ENG":"Multiple Use Reserve","DESIG_TYPE":"National","IUCN_CAT":"Not Reported","INT_CRIT":"Not Applicable","REALM":"Terrestrial","REP_M_AREA":0,"REP_AREA":0.16,"NO_TAKE":"Not Applicable","NO_TK_AREA":0,"STATUS":"Designated","STATUS_YR":1992,"GOV_TYPE":"Not Reported","GOVSUBTYPE":"Not Applicable","OWN_TYPE":"Not Reported","OWNSUBTYPE":"Not Applicable","MANG_AUTH":"Not Reported","MANG_PLAN":"Not Reported","VERIF":"State Verified","METADATAID":1852,"PRNT_ISO3":"ARG","ISO3":"ARG","SUPP_INFO":"Not Applicable","CONS_OBJ":"Not Applicable","INLND_WTRS":"Not Reported","OECM_ASMT":"Not Applicable","layer":"WDPA_W~2"},"geometry":{"type":"MultiPoint","coordinates":[[-59.01727,-31.84948]]}},{"type":"Feature","properties":{"fid":60,"SITE_ID":555636329,"SITE_PID":"555636329","SITE_TYPE":"PA","NAME_ENG":"General San Martín","NAME":"General San Martín","DESIG":"Parque Escolar Rural","DESIG_ENG":"Rural School Park","DESIG_TYPE":"National","IUCN_CAT":"Not Reported","INT_CRIT":"Not Applicable","REALM":"Terrestrial","REP_M_AREA":0,"REP_AREA":6,"NO_TAKE":"Not Applicable","NO_TK_AREA":0,"STATUS":"Designated","STATUS_YR":1950,"GOV_TYPE":"Not Reported","GOVSUBTYPE":"Not Applicable","OWN_TYPE":"Not Reported","OWNSUBTYPE":"Not Applicable","MANG_AUTH":"Not Reported","MANG_PLAN":"Not Reported","VERIF":"State Verified","METADATAID":1852,"PRNT_ISO3":"ARG","ISO3":"ARG","SUPP_INFO":"Not Applicable","CONS_OBJ":"Not Applicable","INLND_WTRS":"Not Reported","OECM_ASMT":"Not Applicable","layer":"WDPA_W~2"},"geometry":{"type":"MultiPoint","coordinates":[[-60.55065,-31.71614]]}},{"type":"Feature","properties":{"fid":61,"SITE_ID":555636330,"SITE_PID":"555636330","SITE_TYPE":"PA","NAME_ENG":"General Belgrano","NAME":"General Belgrano","DESIG":"Reserva Forestal","DESIG_ENG":"Forest Reserve","DESIG_TYPE":"National","IUCN_CAT":"Not Reported","INT_CRIT":"Not Applicable","REALM":"Terrestrial","REP_M_AREA":0,"REP_AREA":15.05,"NO_TAKE":"Not Applicable","NO_TK_AREA":0,"STATUS":"Designated","STATUS_YR":1948,"GOV_TYPE":"Not Reported","GOVSUBTYPE":"Not Applicable","OWN_TYPE":"Not Reported","OWNSUBTYPE":"Not Applicable","MANG_AUTH":"Not Reported","MANG_PLAN":"Not Reported","VERIF":"State Verified","METADATAID":1852,"PRNT_ISO3":"ARG","ISO3":"ARG","SUPP_INFO":"Not Applicable","CONS_OBJ":"Not Applicable","INLND_WTRS":"Not Reported","OECM_ASMT":"Not Applicable","layer":"WDPA_W~2"},"geometry":{"type":"MultiPoint","coordinates":[[-53.7813,-26.06467]]}},{"type":"Feature","properties":{"fid":62,"SITE_ID":555636331,"SITE_PID":"555636331","SITE_TYPE":"PA","NAME_ENG":"General Obligado","NAME":"General Obligado","DESIG":"Reserva Forestal","DESIG_ENG":"Forest Reserve","DESIG_TYPE":"National","IUCN_CAT":"Not Reported","INT_CRIT":"Not Applicable","REALM":"Terrestrial","REP_M_AREA":0,"REP_AREA":34.47,"NO_TAKE":"Not Applicable","NO_TK_AREA":0,"STATUS":"Designated","STATUS_YR":1948,"GOV_TYPE":"Not Reported","GOVSUBTYPE":"Not Applicable","OWN_TYPE":"Not Reported","OWNSUBTYPE":"Not Applicable","MANG_AUTH":"Not Reported","MANG_PLAN":"Not Reported","VERIF":"State Verified","METADATAID":1852,"PRNT_ISO3":"ARG","ISO3":"ARG","SUPP_INFO":"Not Applicable","CONS_OBJ":"Not Applicable","INLND_WTRS":"Not Reported","OECM_ASMT":"Not Applicable","layer":"WDPA_W~2"},"geometry":{"type":"MultiPoint","coordinates":[[-59.47566,-27.37821]]}},{"type":"Feature","properties":{"fid":63,"SITE_ID":555636332,"SITE_PID":"555636332","SITE_TYPE":"PA","NAME_ENG":"Guasamayo","NAME":"Guasamayo","DESIG":"Parque Provincial","DESIG_ENG":"Provincial Park","DESIG_TYPE":"National","IUCN_CAT":"Not Reported","INT_CRIT":"Not Applicable","REALM":"Terrestrial","REP_M_AREA":0,"REP_AREA":90,"NO_TAKE":"Not Applicable","NO_TK_AREA":0,"STATUS":"Designated","STATUS_YR":1963,"GOV_TYPE":"Not Reported","GOVSUBTYPE":"Not Applicable","OWN_TYPE":"Not Reported","OWNSUBTYPE":"Not Applicable","MANG_AUTH":"Not Reported","MANG_PLAN":"Not Reported","VERIF":"State Verified","METADATAID":1852,"PRNT_ISO3":"ARG","ISO3":"ARG","SUPP_INFO":"Not Applicable","CONS_OBJ":"Not Applicable","INLND_WTRS":"Not Reported","OECM_ASMT":"Not Applicable","layer":"WDPA_W~2"},"geometry":{"type":"MultiPoint","coordinates":[[-66.52633,-30.80147]]}},{"type":"Feature","properties":{"fid":64,"SITE_ID":555636333,"SITE_PID":"555636333","SITE_TYPE":"PA","NAME_ENG":"Ibatin","NAME":"Ibatin","DESIG":"Parque Provincial","DESIG_ENG":"Provincial Park","DESIG_TYPE":"National","IUCN_CAT":"Not Reported","INT_CRIT":"Not Applicable","REALM":"Terrestrial","REP_M_AREA":0,"REP_AREA":1.2,"NO_TAKE":"Not Applicable","NO_TK_AREA":0,"STATUS":"Designated","STATUS_YR":1995,"GOV_TYPE":"Not Reported","GOVSUBTYPE":"Not Applicable","OWN_TYPE":"Not Reported","OWNSUBTYPE":"Not Applicable","MANG_AUTH":"Not Reported","MANG_PLAN":"Not Reported","VERIF":"State Verified","METADATAID":1852,"PRNT_ISO3":"ARG","ISO3":"ARG","SUPP_INFO":"Not Applicable","CONS_OBJ":"Not Applicable","INLND_WTRS":"Not Reported","OECM_ASMT":"Not Applicable","layer":"WDPA_W~2"},"geometry":{"type":"MultiPoint","coordinates":[[-65.73319,-27.16169]]}},{"type":"Feature","properties":{"fid":65,"SITE_ID":555636334,"SITE_PID":"555636334","SITE_TYPE":"PA","NAME_ENG":"Isla Caraguatay","NAME":"Isla Caraguatay","DESIG":"Parque Provincial","DESIG_ENG":"Provincial Park","DESIG_TYPE":"National","IUCN_CAT":"Not Reported","INT_CRIT":"Not Applicable","REALM":"Terrestrial","REP_M_AREA":0,"REP_AREA":0.32,"NO_TAKE":"Not Applicable","NO_TK_AREA":0,"STATUS":"Designated","STATUS_YR":1979,"GOV_TYPE":"Not Reported","GOVSUBTYPE":"Not Applicable","OWN_TYPE":"Not Reported","OWNSUBTYPE":"Not Applicable","MANG_AUTH":"Not Reported","MANG_PLAN":"Not Reported","VERIF":"State Verified","METADATAID":1852,"PRNT_ISO3":"ARG","ISO3":"ARG","SUPP_INFO":"Not Applicable","CONS_OBJ":"Not Applicable","INLND_WTRS":"Not Reported","OECM_ASMT":"Not Applicable","layer":"WDPA_W~2"},"geometry":{"type":"MultiPoint","coordinates":[[-54.76844,-26.59255]]}},{"type":"Feature","properties":{"fid":66,"SITE_ID":555636335,"SITE_PID":"555636335","SITE_TYPE":"PA","NAME_ENG":"Isla de los Pájaros","NAME":"Isla de los Pájaros","DESIG":"Reserva Natural Turística","DESIG_ENG":"Natural Tourist Reserve","DESIG_TYPE":"National","IUCN_CAT":"Not Reported","INT_CRIT":"Not Applicable","REALM":"Marine","REP_M_AREA":0,"REP_AREA":0.23,"NO_TAKE":"Not Reported","NO_TK_AREA":0,"STATUS":"Designated","STATUS_YR":1967,"GOV_TYPE":"Not Reported","GOVSUBTYPE":"Not Applicable","OWN_TYPE":"Not Reported","OWNSUBTYPE":"Not Applicable","MANG_AUTH":"Not Reported","MANG_PLAN":"Not Reported","VERIF":"State Verified","METADATAID":1852,"PRNT_ISO3":"ARG","ISO3":"ARG","SUPP_INFO":"Not Applicable","CONS_OBJ":"Not Applicable","INLND_WTRS":"Not Applicable","OECM_ASMT":"Not Applicable","layer":"WDPA_W~2"},"geometry":{"type":"MultiPoint","coordinates":[[-64.51758,-42.41638]]}},{"type":"Feature","properties":{"fid":67,"SITE_ID":555636336,"SITE_PID":"555636336","SITE_TYPE":"PA","NAME_ENG":"Islas De San Felipe","NAME":"Islas De San Felipe","DESIG":"Reserva Natural","DESIG_ENG":"Nature Reserve","DESIG_TYPE":"National","IUCN_CAT":"Not Reported","INT_CRIT":"Not Applicable","REALM":"Terrestrial","REP_M_AREA":0,"REP_AREA":0.05,"NO_TAKE":"Not Applicable","NO_TK_AREA":0,"STATUS":"Designated","STATUS_YR":1990,"GOV_TYPE":"Not Reported","GOVSUBTYPE":"Not Applicable","OWN_TYPE":"Not Reported","OWNSUBTYPE":"Not Applicable","MANG_AUTH":"Not Reported","MANG_PLAN":"Not Reported","VERIF":"State Verified","METADATAID":1852,"PRNT_ISO3":"ARG","ISO3":"ARG","SUPP_INFO":"Not Applicable","CONS_OBJ":"Not Applicable","INLND_WTRS":"Not Reported","OECM_ASMT":"Not Applicable","layer":"WDPA_W~2"},"geometry":{"type":"MultiPoint","coordinates":[[-66.13421,-34.4495]]}},{"type":"Feature","properties":{"fid":68,"SITE_ID":555636338,"SITE_PID":"555636338","SITE_TYPE":"PA","NAME_ENG":"Las Piedras, Camping Tomavieja y Balneario Thompson","NAME":"Las Piedras, Camping Tomavieja y Balneario Thompson","DESIG":"Paisaje Protegido","DESIG_ENG":"Protected Landscape","DESIG_TYPE":"National","IUCN_CAT":"Not Reported","INT_CRIT":"Not Applicable","REALM":"Terrestrial","REP_M_AREA":0,"REP_AREA":3.36,"NO_TAKE":"Not Applicable","NO_TK_AREA":0,"STATUS":"Designated","STATUS_YR":1987,"GOV_TYPE":"Not Reported","GOVSUBTYPE":"Not Applicable","OWN_TYPE":"Not Reported","OWNSUBTYPE":"Not Applicable","MANG_AUTH":"Not Reported","MANG_PLAN":"Not Reported","VERIF":"State Verified","METADATAID":1852,"PRNT_ISO3":"ARG","ISO3":"ARG","SUPP_INFO":"Not Applicable","CONS_OBJ":"Not Applicable","INLND_WTRS":"Not Reported","OECM_ASMT":"Not Applicable","layer":"WDPA_W~2"},"geometry":{"type":"MultiPoint","coordinates":[[-60.51732,-31.71614]]}},{"type":"Feature","properties":{"fid":69,"SITE_ID":555636339,"SITE_PID":"555636339","SITE_TYPE":"PA","NAME_ENG":"La Florida R.","NAME":"La Florida R.","DESIG":"Reserva Provincial de Flora y Fauna","DESIG_ENG":"Provincial Flora and Fauna Reserve","DESIG_TYPE":"National","IUCN_CAT":"Not Reported","INT_CRIT":"Not Applicable","REALM":"Terrestrial","REP_M_AREA":0,"REP_AREA":3.47,"NO_TAKE":"Not Applicable","NO_TK_AREA":0,"STATUS":"Designated","STATUS_YR":1984,"GOV_TYPE":"Not Reported","GOVSUBTYPE":"Not Applicable","OWN_TYPE":"Not Reported","OWNSUBTYPE":"Not Applicable","MANG_AUTH":"Not Reported","MANG_PLAN":"Not Reported","VERIF":"State Verified","METADATAID":1852,"PRNT_ISO3":"ARG","ISO3":"ARG","SUPP_INFO":"Not Applicable","CONS_OBJ":"Not Applicable","INLND_WTRS":"Not Reported","OECM_ASMT":"Not Applicable","layer":"WDPA_W~2"},"geometry":{"type":"MultiPoint","coordinates":[[-66.05086,-33.11614]]}},{"type":"Feature","properties":{"fid":70,"SITE_ID":555636340,"SITE_PID":"555636340","SITE_TYPE":"PA","NAME_ENG":"La Laguna","NAME":"La Laguna","DESIG":"Zona de Res. de Fauna Silvestre","DESIG_ENG":"Wildlife Area","DESIG_TYPE":"National","IUCN_CAT":"Not Reported","INT_CRIT":"Not Applicable","REALM":"Terrestrial","REP_M_AREA":0,"REP_AREA":0,"NO_TAKE":"Not Applicable","NO_TK_AREA":0,"STATUS":"Designated","STATUS_YR":1991,"GOV_TYPE":"Not Reported","GOVSUBTYPE":"Not Applicable","OWN_TYPE":"Not Reported","OWNSUBTYPE":"Not Applicable","MANG_AUTH":"Not Reported","MANG_PLAN":"Not Reported","VERIF":"State Verified","METADATAID":1852,"PRNT_ISO3":"ARG","ISO3":"ARG","SUPP_INFO":"Not Applicable","CONS_OBJ":"Not Applicable","INLND_WTRS":"Not Reported","OECM_ASMT":"Not Applicable","layer":"WDPA_W~2"},"geometry":{"type":"MultiPoint","coordinates":[[-65.58411,-25.14933]]}},{"type":"Feature","properties":{"fid":71,"SITE_ID":555636341,"SITE_PID":"555636341","SITE_TYPE":"PA","NAME_ENG":"Lago Guacho","NAME":"Lago Guacho","DESIG":"Reserva Forestal","DESIG_ENG":"Forest Reserve","DESIG_TYPE":"National","IUCN_CAT":"Not Reported","INT_CRIT":"Not Applicable","REALM":"Terrestrial","REP_M_AREA":0,"REP_AREA":10,"NO_TAKE":"Not Applicable","NO_TK_AREA":0,"STATUS":"Designated","STATUS_YR":1986,"GOV_TYPE":"Not Reported","GOVSUBTYPE":"Not Applicable","OWN_TYPE":"Not Reported","OWNSUBTYPE":"Not Applicable","MANG_AUTH":"Not Reported","MANG_PLAN":"Not Reported","VERIF":"State Verified","METADATAID":1852,"PRNT_ISO3":"ARG","ISO3":"ARG","SUPP_INFO":"Not Applicable","CONS_OBJ":"Not Applicable","INLND_WTRS":"Not Reported","OECM_ASMT":"Not Applicable","layer":"WDPA_W~2"},"geometry":{"type":"MultiPoint","coordinates":[[-71.47948,-43.82034]]}},{"type":"Feature","properties":{"fid":72,"SITE_ID":555636342,"SITE_PID":"555636342","SITE_TYPE":"PA","NAME_ENG":"Laguna Carri Laufquen","NAME":"Laguna Carri Laufquen","DESIG":"Parque Público Turístico","DESIG_ENG":"Public Tourist Park","DESIG_TYPE":"National","IUCN_CAT":"Not Reported","INT_CRIT":"Not Applicable","REALM":"Terrestrial","REP_M_AREA":0,"REP_AREA":7,"NO_TAKE":"Not Applicable","NO_TK_AREA":0,"STATUS":"Designated","STATUS_YR":1959,"GOV_TYPE":"Not Reported","GOVSUBTYPE":"Not Applicable","OWN_TYPE":"Not Reported","OWNSUBTYPE":"Not Applicable","MANG_AUTH":"Not Reported","MANG_PLAN":"Not Reported","VERIF":"State Verified","METADATAID":1852,"PRNT_ISO3":"ARG","ISO3":"ARG","SUPP_INFO":"Not Applicable","CONS_OBJ":"Not Applicable","INLND_WTRS":"Not Reported","OECM_ASMT":"Not Applicable","layer":"WDPA_W~2"},"geometry":{"type":"MultiPoint","coordinates":[[-68.27675,-41.38437]]}},{"type":"Feature","properties":{"fid":73,"SITE_ID":555636343,"SITE_PID":"555636343","SITE_TYPE":"PA","NAME_ENG":"Laguna de los Padres","NAME":"Laguna de los Padres","DESIG":"Reserva Botánica","DESIG_ENG":"Botanical Reserve","DESIG_TYPE":"National","IUCN_CAT":"Not Reported","INT_CRIT":"Not Applicable","REALM":"Terrestrial","REP_M_AREA":0,"REP_AREA":0.96,"NO_TAKE":"Not Applicable","NO_TK_AREA":0,"STATUS":"Designated","STATUS_YR":1949,"GOV_TYPE":"Not Reported","GOVSUBTYPE":"Not Applicable","OWN_TYPE":"Not Reported","OWNSUBTYPE":"Not Applicable","MANG_AUTH":"Not Reported","MANG_PLAN":"Not Reported","VERIF":"State Verified","METADATAID":1852,"PRNT_ISO3":"ARG","ISO3":"ARG","SUPP_INFO":"Not Applicable","CONS_OBJ":"Not Applicable","INLND_WTRS":"Not Reported","OECM_ASMT":"Not Applicable","layer":"WDPA_W~2"},"geometry":{"type":"MultiPoint","coordinates":[[-57.7006,-37.94963]]}},{"type":"Feature","properties":{"fid":74,"SITE_ID":555636345,"SITE_PID":"555636345","SITE_TYPE":"PA","NAME_ENG":"Las Dos Hermanas","NAME":"Las Dos Hermanas","DESIG":"Refugio Privado de Vida Silvestre","DESIG_ENG":"Private Wildlife Refuge","DESIG_TYPE":"National","IUCN_CAT":"Not Reported","INT_CRIT":"Not Applicable","REALM":"Terrestrial","REP_M_AREA":0,"REP_AREA":9.6,"NO_TAKE":"Not Applicable","NO_TK_AREA":0,"STATUS":"Designated","STATUS_YR":1989,"GOV_TYPE":"Not Reported","GOVSUBTYPE":"Not Applicable","OWN_TYPE":"Not Reported","OWNSUBTYPE":"Not Applicable","MANG_AUTH":"Not Reported","MANG_PLAN":"Not Reported","VERIF":"State Verified","METADATAID":1852,"PRNT_ISO3":"ARG","ISO3":"ARG","SUPP_INFO":"Not Applicable","CONS_OBJ":"Not Applicable","INLND_WTRS":"Not Reported","OECM_ASMT":"Not Applicable","layer":"WDPA_W~2"},"geometry":{"type":"MultiPoint","coordinates":[[-62.05291,-33.01908]]}}]}